{"type": "FeatureCollection", "features": [{"type": "Feature", "geometry": {"type": "Polygon", "coordinates": [[[-73.91069874625755, 42.498703868785135], [-73.91072308227653, 42.49870410011056], [-73.9107224570738, 42.4987401171149], [-73.91069812104085, 42.49873988578917], [-73.91069780843208, 42.49875789429115], [-73.91064913635307, 42.498757431623915], [-73.91064976159826, 42.498721414620555], [-73.91069843364934, 42.4987218772872], [-73.91069874625755, 42.498703868785135]]]}, "properties": {"verify": 1, "verify_meaning": "positively identified", "host_unit": "Dhm", "area_m2": 24.0, "glyph": "\ud83d\udd73", "feature": "possible covered karst (Hamilton over Onondaga)"}}, {"type": "Feature", "geometry": {"type": "Polygon", "coordinates": [[[-73.908238697353, 42.465215048014706], [-73.90830562776937, 42.465220098329354], [-73.9083170792337, 42.46524740506278], [-73.90832932495354, 42.46525634720319], [-73.90834108935294, 42.46526564534091], [-73.90836511174743, 42.46528317995512], [-73.90824393601349, 42.46528919778026], [-73.908238697353, 42.465215048014706]]]}, "properties": {"verify": 1, "verify_meaning": "positively identified", "host_unit": "Dhm", "area_m2": 54.9, "glyph": "\ud83d\udd73", "feature": "possible covered karst (Hamilton over Onondaga)"}}, {"type": "Feature", "geometry": {"type": "Polygon", "coordinates": [[[-73.90934584345506, 42.50353215030083], [-73.90939451921636, 42.50353261356329], [-73.90939358010955, 42.503586639000126], [-73.90934490430634, 42.50358617573681], [-73.90934584345506, 42.50353215030083]]]}, "properties": {"verify": 1, "verify_meaning": "positively identified", "host_unit": "Dhm", "area_m2": 24.0, "glyph": "\ud83d\udd73", "feature": "possible covered karst (Hamilton over Onondaga)"}}, {"type": "Feature", "geometry": {"type": "Polygon", "coordinates": [[[-74.24747252358917, 42.636252574214716], [-74.24752590695049, 42.63625708468799], [-74.24750858431422, 42.63629226335436], [-74.24747678066991, 42.63628519470951], [-74.24747252358917, 42.636252574214716]]]}, "properties": {"verify": 2, "verify_meaning": "unable to identify", "host_unit": "Dhm", "area_m2": 13.5, "glyph": "\ud83d\udd73", "feature": "possible covered karst (Hamilton over Onondaga)"}}, {"type": "Feature", "geometry": {"type": "Polygon", "coordinates": [[[-74.20446132007936, 42.623237044984435], [-74.20449396154866, 42.62324147406595], [-74.20444195948035, 42.62326793218903], [-74.20442220188326, 42.62328580606927], [-74.20440795350612, 42.62326170859933], [-74.2044472066649, 42.6232498125687], [-74.20446132007936, 42.623237044984435]]]}, "properties": {"verify": 1, "verify_meaning": "positively identified", "host_unit": "Dhm", "area_m2": 12.1, "glyph": "\ud83d\udd73", "feature": "possible covered karst (Hamilton over Onondaga)"}}, {"type": "Feature", "geometry": {"type": "Polygon", "coordinates": [[[-74.1594276038853, 42.60420179497634], [-74.15947636153379, 42.60420215269892], [-74.15947611942234, 42.604220162187865], [-74.1595248770858, 42.604220519889914], [-74.15952463498816, 42.604238529378975], [-74.15954901382722, 42.60423870822234], [-74.15954877173637, 42.60425671771153], [-74.1595731505827, 42.604256896549806], [-74.15957290849866, 42.604274906038974], [-74.15959728735221, 42.604275084872185], [-74.1595960769638, 42.60436513231785], [-74.15957169807514, 42.60436495348408], [-74.15957145598976, 42.60438296297291], [-74.1594495615147, 42.60438206872569], [-74.15944980363518, 42.60436405923743], [-74.15942542474787, 42.60436388037254], [-74.15942566687514, 42.604345870884316], [-74.15940128799504, 42.60434569201435], [-74.15940153012912, 42.60432768252614], [-74.15937715125627, 42.60432750365109], [-74.15937811981838, 42.60425546569829], [-74.15940249866317, 42.604255644572895], [-74.15940298292887, 42.60421962559587], [-74.15942736175982, 42.60421980446505], [-74.1594276038853, 42.60420179497634]]]}, "properties": {"verify": 1, "verify_meaning": "positively identified", "host_unit": "Dhm", "area_m2": 272.0, "glyph": "\ud83d\udd73", "feature": "possible covered karst (Hamilton over Onondaga)"}}, {"type": "Feature", "geometry": {"type": "Polygon", "coordinates": [[[-74.06431915231292, 42.61054291321552], [-74.0643131446136, 42.61057480039976], [-74.06429970101352, 42.610582862919834], [-74.06427918164623, 42.61060070653053], [-74.06426475330177, 42.610571156674524], [-74.06428903352077, 42.61055659226485], [-74.06430024018235, 42.610546844911404], [-74.06431915231292, 42.61054291321552]]]}, "properties": {"verify": 1, "verify_meaning": "positively identified", "host_unit": "Dhm", "area_m2": 14.2, "glyph": "\ud83d\udd73", "feature": "possible covered karst (Hamilton over Onondaga)"}}, {"type": "Feature", "geometry": {"type": "Polygon", "coordinates": [[[-74.02226145152191, 42.596251013353154], [-74.02228067359667, 42.59625493706609], [-74.02229041594906, 42.59628352333264], [-74.0223044853118, 42.59629116273679], [-74.02231422768043, 42.59631974900132], [-74.02232829705422, 42.59632738840261], [-74.02233832097198, 42.596337965836696], [-74.02236249404096, 42.59635108031229], [-74.02235194482775, 42.59637410455781], [-74.02233764037136, 42.59638150182749], [-74.02232700690952, 42.596409914209836], [-74.02231270244197, 42.59641731147624], [-74.02229514262727, 42.59643497277759], [-74.02227813964961, 42.59641701651898], [-74.02226407026211, 42.59640937711149], [-74.02225460946046, 42.59636278201539], [-74.02224054008798, 42.59635514260512], [-74.02223051618421, 42.59634456516258], [-74.02220634314594, 42.59633145065949], [-74.022216892405, 42.59630842642767], [-74.02225557167476, 42.59630123719749], [-74.02226145152191, 42.596251013353154]]]}, "properties": {"verify": 1, "verify_meaning": "positively identified", "host_unit": "Dhm", "area_m2": 116.3, "glyph": "\ud83d\udd73", "feature": "possible covered karst (Hamilton over Onondaga)"}}]}