{"type": "FeatureCollection", "features": [{"type": "Feature", "geometry": {"type": "Polygon", "coordinates": [[[-74.07103091978693, 42.68062469614807], [-74.07107413921199, 42.68062913167869], [-74.07108506446161, 42.68063906124964], [-74.07110924974032, 42.68065421671366], [-74.07106920246008, 42.68066487617923], [-74.07104946281714, 42.68064694254418], [-74.07103624825729, 42.68063866534455], [-74.07103091978693, 42.68062469614807]]]}, "properties": {"verify": 1, "verify_meaning": "positively identified", "host_unit": "Dhg", "area_m2": 14.2, "glyph": "\ud83d\udd73", "feature": "karst sinkhole (carbonate outcrop)"}}, {"type": "Feature", "geometry": {"type": "Polygon", "coordinates": [[[-74.07393915989812, 42.67875709137578], [-74.07398204090603, 42.67876176931682], [-74.07399364100374, 42.678771211581214], [-74.07404228643308, 42.678783011223885], [-74.07402991462484, 42.67882553782998], [-74.07401711751001, 42.67883409689284], [-74.073994236276, 42.67885192291312], [-74.0739328497871, 42.678840890888324], [-74.0739635965835, 42.678820327444306], [-74.073944291335, 42.67880683460612], [-74.0739326912383, 42.67879739233677], [-74.0739133860036, 42.67878389949345], [-74.07393308731508, 42.678770722021085], [-74.07393915989812, 42.67875709137578]]]}, "properties": {"verify": 1, "verify_meaning": "positively identified", "host_unit": "Dhg", "area_m2": 66.8, "glyph": "\ud83d\udd73", "feature": "karst sinkhole (carbonate outcrop)"}}, {"type": "Feature", "geometry": {"type": "Polygon", "coordinates": [[[-74.11309746093465, 42.67760809688448], [-74.11312559623924, 42.677614747867814], [-74.11299215078749, 42.67770158423763], [-74.11296702340938, 42.677692634782346], [-74.11301069320746, 42.67767825545757], [-74.11309746093465, 42.67760809688448]]]}, "properties": {"verify": 1, "verify_meaning": "positively identified", "host_unit": "Dhg", "area_m2": 21.9, "glyph": "\ud83d\udd73", "feature": "karst sinkhole (carbonate outcrop)"}}, {"type": "Feature", "geometry": {"type": "Polygon", "coordinates": [[[-74.1038832584237, 42.66737815844732], [-74.10382888119022, 42.667372473943615], [-74.10384417165132, 42.66733776752048], [-74.1038648203638, 42.66735583457992], [-74.10387781074357, 42.6673642733533], [-74.1038832584237, 42.66737815844732]]]}, "properties": {"verify": 1, "verify_meaning": "positively identified", "host_unit": "Don", "area_m2": 10.2, "glyph": "\ud83d\udd73", "feature": "karst sinkhole (carbonate outcrop)"}}, {"type": "Feature", "geometry": {"type": "Polygon", "coordinates": [[[-74.0199623755239, 42.64493353395465], [-74.0199867693003, 42.64493374265249], [-74.01998648661036, 42.64495175131491], [-74.02001088039407, 42.644951960007695], [-74.02001003234379, 42.64500598599502], [-74.01993685093015, 42.645005359899905], [-74.01993769904374, 42.64495133391376], [-74.01996209282692, 42.64495154261694], [-74.0199623755239, 42.64493353395465]]]}, "properties": {"verify": 2, "verify_meaning": "unable to identify", "host_unit": "Don", "area_m2": 40.0, "glyph": "\ud83d\udd73", "feature": "karst sinkhole (carbonate outcrop)"}}, {"type": "Feature", "geometry": {"type": "Polygon", "coordinates": [[[-74.00570547377937, 42.6378403818864], [-74.00580303738451, 42.63784122867675], [-74.00580189054378, 42.63791326310779], [-74.00577749961397, 42.63791305141746], [-74.00577721289608, 42.63793106002491], [-74.0057528219595, 42.637930848329255], [-74.00575253523434, 42.63794885693655], [-74.00570375334793, 42.6379484335294], [-74.00570547377937, 42.6378403818864]]]}, "properties": {"verify": 1, "verify_meaning": "positively identified", "host_unit": "Don", "area_m2": 84.0, "glyph": "\ud83d\udd73", "feature": "karst sinkhole (carbonate outcrop)"}}, {"type": "Feature", "geometry": {"type": "Polygon", "coordinates": [[[-73.94036230561586, 42.5982835702783], [-73.9404412161379, 42.59828949108758], [-73.94041665037692, 42.598306496755654], [-73.94039292239836, 42.59832428848248], [-73.94036774478981, 42.59831523030564], [-73.94036230561586, 42.5982835702783]]]}, "properties": {"verify": 1, "verify_meaning": "positively identified", "host_unit": "Dhg", "area_m2": 17.1, "glyph": "\ud83d\udd73", "feature": "karst sinkhole (carbonate outcrop)"}}, {"type": "Feature", "geometry": {"type": "Polygon", "coordinates": [[[-73.98236492623563, 42.58717320463572], [-73.98238359034129, 42.58717753903204], [-73.98239471111697, 42.58718731181403], [-73.98241882970338, 42.58720304401944], [-73.98237132915857, 42.587213087631845], [-73.98236492623563, 42.58717320463572]]]}, "properties": {"verify": 1, "verify_meaning": "positively identified", "host_unit": "Don", "area_m2": 10.1, "glyph": "\ud83d\udd73", "feature": "karst sinkhole (carbonate outcrop)"}}, {"type": "Feature", "geometry": {"type": "Polygon", "coordinates": [[[-73.96767254871726, 42.584628254058245], [-73.96772128843871, 42.58462869321877], [-73.96772069416376, 42.584664710345876], [-73.96767195441427, 42.5846642711848], [-73.96767254871726, 42.584628254058245]]]}, "properties": {"verify": 1, "verify_meaning": "positively identified", "host_unit": "Don", "area_m2": 16.0, "glyph": "\ud83d\udd73", "feature": "karst sinkhole (carbonate outcrop)"}}, {"type": "Feature", "geometry": {"type": "Polygon", "coordinates": [[[-73.90630527035259, 42.582942168311064], [-73.90628646880077, 42.582946157436524], [-73.90627407525227, 42.583009746759444], [-73.90626084084926, 42.58301795763865], [-73.90623953059752, 42.583035765410266], [-73.90622777556752, 42.58300530323395], [-73.9062614088088, 42.58298444707432], [-73.90621287872713, 42.58297314009898], [-73.90619532158328, 42.58295768317323], [-73.90617722994105, 42.58297279975239], [-73.9061639955335, 42.5829810106204], [-73.90615223153304, 42.58300858351049], [-73.90613899711458, 42.583016794375446], [-73.9061269182487, 42.58306237547122], [-73.90608931504863, 42.5830703536592], [-73.90607786585981, 42.58307991833243], [-73.90604026264326, 42.5830878965041], [-73.90601895230535, 42.58310570423341], [-73.90596698719278, 42.58309687079714], [-73.90595619114598, 42.58306908249617], [-73.90594324821829, 42.58306062167714], [-73.90593213728468, 42.58305084158146], [-73.90591168154687, 42.583037472018795], [-73.90593259795372, 42.583024497543526], [-73.90594530675044, 42.582942900053794], [-73.90595854117802, 42.58293468921123], [-73.9059699903578, 42.5829251245496], [-73.9059832247784, 42.58291691370406], [-73.90599853169195, 42.58288103743942], [-73.90600807748972, 42.58288946581382], [-73.9060221248795, 42.582925622379555], [-73.90605633089783, 42.58291761177561], [-73.90607442255263, 42.58290249521553], [-73.9060984258203, 42.582923629020975], [-73.90612315995554, 42.582902960562826], [-73.9061407170663, 42.58291841749943], [-73.90615937288361, 42.58292276422915], [-73.90615460450591, 42.58287285366851], [-73.90613050707697, 42.58285710563063], [-73.90617748580422, 42.58284720738847], [-73.90619168206894, 42.58290923009348], [-73.90622722667038, 42.5829012322182], [-73.90624853687895, 42.58288342444799], [-73.90627613315837, 42.58289202512204], [-73.90628692931897, 42.582919813394966], [-73.9062998722652, 42.58292827417558], [-73.90630527035259, 42.582942168311064]], [[-73.90615937288361, 42.58292276422915], [-73.90616733706766, 42.5829444000786], [-73.9061890514997, 42.58292934007503], [-73.90615937288361, 42.58292276422915]]]}, "properties": {"verify": 1, "verify_meaning": "positively identified", "host_unit": "Dhg", "area_m2": 441.6, "glyph": "\ud83d\udd73", "feature": "karst sinkhole (carbonate outcrop)"}}, {"type": "Feature", "geometry": {"type": "Polygon", "coordinates": [[[-73.96560043713983, 42.57727898530254], [-73.96566782957476, 42.57728376235319], [-73.9656789489539, 42.57729353675451], [-73.96569189891505, 42.577301990907216], [-73.96570301830117, 42.577311765306305], [-73.96571596826938, 42.57732021945629], [-73.96572679002716, 42.57734800242834], [-73.96574725692112, 42.577361361441206], [-73.96571867783963, 42.577379114711896], [-73.96574666166117, 42.577397378591755], [-73.96572575934653, 42.577410364154396], [-73.96571432020953, 42.577419934906416], [-73.965676727627, 42.57742793277955], [-73.96566528847933, 42.57743750352651], [-73.96565206292811, 42.57744572137137], [-73.96564062377341, 42.5774552921158], [-73.96562739821518, 42.577463509957724], [-73.96561213586394, 42.577499381496494], [-73.96559145420396, 42.57748119670384], [-73.96556734361792, 42.5774654610149], [-73.9655795571429, 42.57740904424343], [-73.9656284495973, 42.577398641970156], [-73.96560435963661, 42.57738291966688], [-73.96560043713983, 42.57727898530254]]]}, "properties": {"verify": 1, "verify_meaning": "positively identified", "host_unit": "Don", "area_m2": 191.2, "glyph": "\ud83d\udd73", "feature": "karst sinkhole (carbonate outcrop)"}}, {"type": "Feature", "geometry": {"type": "Polygon", "coordinates": [[[-73.88159209965144, 42.567213929403195], [-73.88159863588776, 42.567182385573844], [-73.88161121271207, 42.5671736786081], [-73.88162364170927, 42.567146607165576], [-73.88163621852289, 42.56713790019694], [-73.88165267131201, 42.5671020382939], [-73.88169476971206, 42.56711379418754], [-73.88167268814908, 42.56712907466179], [-73.88166025917658, 42.56715614611], [-73.88163558765623, 42.56717321297483], [-73.88164719665014, 42.567192041106495], [-73.88167114408961, 42.567209512186395], [-73.88159209965144, 42.567213929403195]]]}, "properties": {"verify": 1, "verify_meaning": "positively identified", "host_unit": "Dhg", "area_m2": 41.0, "glyph": "\ud83d\udd73", "feature": "karst sinkhole (carbonate outcrop)"}}, {"type": "Feature", "geometry": {"type": "Polygon", "coordinates": [[[-73.87204407389628, 42.55569611618213], [-73.87209854743064, 42.555702166635406], [-73.87208232883164, 42.55573684666606], [-73.87201384778048, 42.555725825687375], [-73.8720379703837, 42.55570973604926], [-73.87204407389628, 42.55569611618213]]]}, "properties": {"verify": 1, "verify_meaning": "positively identified", "host_unit": "Dhg", "area_m2": 18.8, "glyph": "\ud83d\udd73", "feature": "karst sinkhole (carbonate outcrop)"}}, {"type": "Feature", "geometry": {"type": "Polygon", "coordinates": [[[-73.86689268005463, 42.55361001221693], [-73.86693624172361, 42.55361420269227], [-73.86694622050919, 42.55362479329783], [-73.86697007528865, 42.55363779451777], [-73.866945758711, 42.55365031937342], [-73.86693225518493, 42.55368620840184], [-73.8668965291352, 42.55367833573602], [-73.86689268005463, 42.55361001221693]]]}, "properties": {"verify": 1, "verify_meaning": "positively identified", "host_unit": "Dhg", "area_m2": 33.1, "glyph": "\ud83d\udd73", "feature": "karst sinkhole (carbonate outcrop)"}}, {"type": "Feature", "geometry": {"type": "Polygon", "coordinates": [[[-73.86738860326105, 42.53965615437421], [-73.86750476257421, 42.53966139201203], [-73.86751563406732, 42.53967133181772], [-73.86752878867375, 42.53967964080423], [-73.86753966017379, 42.53968958060768], [-73.86756374127783, 42.539704787007075], [-73.86754792982016, 42.53973375842808], [-73.86752813775001, 42.539715657022576], [-73.86744192840133, 42.53970662596198], [-73.86743105691409, 42.53969668614946], [-73.86741790231731, 42.539688377151855], [-73.86740703083704, 42.539678437337066], [-73.86739387624732, 42.53967012833679], [-73.86738860326105, 42.53965615437421]]]}, "properties": {"verify": 1, "verify_meaning": "positively identified", "host_unit": "Dhg", "area_m2": 60.9, "glyph": "\ud83d\udd73", "feature": "karst sinkhole (carbonate outcrop)"}}, {"type": "Feature", "geometry": {"type": "Polygon", "coordinates": [[[-74.22678040253275, 42.704682982436495], [-74.22691841237041, 42.70470673996446], [-74.22694141030018, 42.70484109369383], [-74.22690949342713, 42.7048679167222], [-74.22687316229162, 42.70486982172741], [-74.22680827220377, 42.704827821253275], [-74.22676448458274, 42.70476867337057], [-74.22675948866679, 42.7047168888585], [-74.22678040253275, 42.704682982436495]], [[-74.22686430290844, 42.704809625659415], [-74.22687931848512, 42.70483027518552], [-74.22689298701906, 42.70481437918576], [-74.22686430290844, 42.704809625659415]], [[-74.22685321107696, 42.70471949589213], [-74.2268572538833, 42.70473050301953], [-74.22686805882742, 42.704722678562206], [-74.22685321107696, 42.70471949589213]]]}, "properties": {"verify": 1, "verify_meaning": "positively identified", "host_unit": "Dhg", "area_m2": 217.5, "glyph": "\ud83d\udd73", "feature": "karst sinkhole (carbonate outcrop)"}}, {"type": "Feature", "geometry": {"type": "Polygon", "coordinates": [[[-74.12568739315597, 42.68409879898523], [-74.12570609499053, 42.68410311030112], [-74.12571725842855, 42.68411286939122], [-74.1257790719459, 42.684121678318384], [-74.12579023539872, 42.6841314374015], [-74.12581442767879, 42.68414713982418], [-74.12580284112094, 42.68416755562189], [-74.12578192949594, 42.68418057008388], [-74.12581002006765, 42.68419879548312], [-74.12578910843352, 42.684211809946284], [-74.12577716865533, 42.68425741470724], [-74.12575254119587, 42.68427274451994], [-74.12576355282165, 42.68429333279444], [-74.12578409507694, 42.68430666364704], [-74.12576318340093, 42.68431967810484], [-74.12575174864524, 42.68432926470755], [-74.12573852095534, 42.68433750086987], [-74.1257270861926, 42.684347087470094], [-74.12571385849564, 42.68435532362947], [-74.12570217117968, 42.68438291930388], [-74.1256889434718, 42.68439115546024], [-74.12567725613788, 42.68441875113179], [-74.12566402841907, 42.68442698728513], [-74.12564276298116, 42.68444482276816], [-74.12562857189748, 42.6844087056214], [-74.12561557800048, 42.68440026930392], [-74.12560466710227, 42.68437250112776], [-74.12559167321601, 42.6843640648076], [-74.12558050975352, 42.68435430570547], [-74.12555631745369, 42.68433860323374], [-74.12556840929301, 42.68428216930978], [-74.12559303680088, 42.68426683953709], [-74.12558227781585, 42.684228242169986], [-74.12555808556395, 42.68421253969876], [-74.12556992479286, 42.684174114849995], [-74.12558315246972, 42.684165878706786], [-74.12559458722066, 42.68415629212056], [-74.12560781489049, 42.68414805597443], [-74.12561924963435, 42.68413846938569], [-74.12563247729715, 42.684130233236615], [-74.12564391203395, 42.684120646645276], [-74.12568154951846, 42.684112596822004], [-74.12568739315597, 42.68409879898523]]]}, "properties": {"verify": 1, "verify_meaning": "positively identified", "host_unit": "Dhg", "area_m2": 487.2, "glyph": "\ud83d\udd73", "feature": "karst sinkhole (carbonate outcrop)"}}, {"type": "Feature", "geometry": {"type": "Polygon", "coordinates": [[[-74.21043314274262, 42.68233686787988], [-74.2104868540881, 42.68234481892936], [-74.21043850178877, 42.68237725817489], [-74.2104240911278, 42.68238852127439], [-74.21042721355803, 42.6823415012613], [-74.21043314274262, 42.68233686787988]]]}, "properties": {"verify": 1, "verify_meaning": "positively identified", "host_unit": "Dhg", "area_m2": 13.8, "glyph": "\ud83d\udd73", "feature": "karst sinkhole (carbonate outcrop)"}}, {"type": "Feature", "geometry": {"type": "Polygon", "coordinates": [[[-74.20271828506975, 42.66425434896315], [-74.2027353579931, 42.66426322709543], [-74.20272302377701, 42.66431201217551], [-74.20270920865515, 42.66431419378953], [-74.20269588266872, 42.66426830817673], [-74.2027132333965, 42.66425964325747], [-74.20271828506975, 42.66425434896315]]]}, "properties": {"verify": 2, "verify_meaning": "unable to identify", "host_unit": "Dhg", "area_m2": 13.3, "glyph": "\ud83d\udd73", "feature": "karst sinkhole (carbonate outcrop)"}}, {"type": "Feature", "geometry": {"type": "Polygon", "coordinates": [[[-74.16238828199845, 42.65252949522339], [-74.16244233364587, 42.652535466148656], [-74.16240628473744, 42.65256053070025], [-74.16241799422606, 42.652579330994996], [-74.16243031287476, 42.65258825073495], [-74.1624421502887, 42.652597518734595], [-74.1624663158052, 42.652615002978955], [-74.1624508729312, 42.652660445530046], [-74.16239262977791, 42.65265118999878], [-74.16238079236138, 42.652641921994075], [-74.1623566268588, 42.65262443773189], [-74.16236932197374, 42.65256979365272], [-74.1623818775761, 42.6525610557932], [-74.16238828199845, 42.65252949522339]]]}, "properties": {"verify": 1, "verify_meaning": "positively identified", "host_unit": "Don", "area_m2": 75.3, "glyph": "\ud83d\udd73", "feature": "karst sinkhole (carbonate outcrop)"}}, {"type": "Feature", "geometry": {"type": "Polygon", "coordinates": [[[-73.83223981817484, 42.47051774255467], [-73.83229421406755, 42.47052381108043], [-73.83227933569955, 42.47057617694566], [-73.83225754302849, 42.47055827757563], [-73.83224507861055, 42.470549487804696], [-73.83223981817484, 42.47051774255467]]]}, "properties": {"verify": 1, "verify_meaning": "positively identified", "host_unit": "Dhg", "area_m2": 17.6, "glyph": "\ud83d\udd73", "feature": "karst sinkhole (carbonate outcrop)"}}, {"type": "Feature", "geometry": {"type": "Polygon", "coordinates": [[[-73.85579527433507, 42.46356873712346], [-73.85587400353118, 42.46357471198515], [-73.85584946867027, 42.463591704665156], [-73.85582577328914, 42.463609479654615], [-73.85580065756756, 42.46360039902788], [-73.85579527433507, 42.46356873712346]]]}, "properties": {"verify": 2, "verify_meaning": "unable to identify", "host_unit": "Don", "area_m2": 17.1, "glyph": "\ud83d\udd73", "feature": "karst sinkhole (carbonate outcrop)"}}]}