{"type": "FeatureCollection", "features": [{"type": "Feature", "geometry": {"type": "Point", "coordinates": [-74.426264, 42.742878]}, "properties": {"verify": 1, "verify_meaning": "positively identified", "host_unit": "Dhg", "area_m2": 18.5, "glyph": "\ud83d\udd73", "feature": "karst sinkhole (carbonate outcrop)"}}, {"type": "Feature", "geometry": {"type": "Point", "coordinates": [-74.448767, 42.72806]}, "properties": {"verify": 1, "verify_meaning": "positively identified", "host_unit": "Don", "area_m2": 42.2, "glyph": "\ud83d\udd73", "feature": "karst sinkhole (carbonate outcrop)"}}, {"type": "Feature", "geometry": {"type": "Point", "coordinates": [-74.431678, 42.727128]}, "properties": {"verify": 1, "verify_meaning": "positively identified", "host_unit": "Dhg", "area_m2": 522.3, "glyph": "\ud83d\udd73", "feature": "karst sinkhole (carbonate outcrop)"}}, {"type": "Feature", "geometry": {"type": "Point", "coordinates": [-74.433161, 42.722168]}, "properties": {"verify": 1, "verify_meaning": "positively identified", "host_unit": "Dhg", "area_m2": 19.3, "glyph": "\ud83d\udd73", "feature": "karst sinkhole (carbonate outcrop)"}}, {"type": "Feature", "geometry": {"type": "Point", "coordinates": [-74.410913, 42.719826]}, "properties": {"verify": 1, "verify_meaning": "positively identified", "host_unit": "Dhg", "area_m2": 33.6, "glyph": "\ud83d\udd73", "feature": "karst sinkhole (carbonate outcrop)"}}, {"type": "Feature", "geometry": {"type": "Point", "coordinates": [-74.379901, 42.70954]}, "properties": {"verify": 1, "verify_meaning": "positively identified", "host_unit": "Dhg", "area_m2": 21.1, "glyph": "\ud83d\udd73", "feature": "karst sinkhole (carbonate outcrop)"}}, {"type": "Feature", "geometry": {"type": "Point", "coordinates": [-74.392377, 42.709032]}, "properties": {"verify": 2, "verify_meaning": "unable to identify", "host_unit": "Dhg", "area_m2": 51.1, "glyph": "\ud83d\udd73", "feature": "karst sinkhole (carbonate outcrop)"}}, {"type": "Feature", "geometry": {"type": "Point", "coordinates": [-74.376655, 42.696461]}, "properties": {"verify": 1, "verify_meaning": "positively identified", "host_unit": "Dhg", "area_m2": 20.1, "glyph": "\ud83d\udd73", "feature": "karst sinkhole (carbonate outcrop)"}}, {"type": "Feature", "geometry": {"type": "Point", "coordinates": [-74.377787, 42.694712]}, "properties": {"verify": 1, "verify_meaning": "positively identified", "host_unit": "Dhg", "area_m2": 175.9, "glyph": "\ud83d\udd73", "feature": "karst sinkhole (carbonate outcrop)"}}, {"type": "Feature", "geometry": {"type": "Point", "coordinates": [-74.473716, 42.691916]}, "properties": {"verify": 1, "verify_meaning": "positively identified", "host_unit": "Don", "area_m2": 12.8, "glyph": "\ud83d\udd73", "feature": "karst sinkhole (carbonate outcrop)"}}, {"type": "Feature", "geometry": {"type": "Point", "coordinates": [-74.446392, 42.674784]}, "properties": {"verify": 1, "verify_meaning": "positively identified", "host_unit": "Don", "area_m2": 23.5, "glyph": "\ud83d\udd73", "feature": "karst sinkhole (carbonate outcrop)"}}, {"type": "Feature", "geometry": {"type": "Point", "coordinates": [-74.337538, 42.623116]}, "properties": {"verify": 1, "verify_meaning": "positively identified", "host_unit": "Dhg", "area_m2": 38.7, "glyph": "\ud83d\udd73", "feature": "karst sinkhole (carbonate outcrop)"}}, {"type": "Feature", "geometry": {"type": "Point", "coordinates": [-74.268791, 42.711406]}, "properties": {"verify": 1, "verify_meaning": "positively identified", "host_unit": "Dhg", "area_m2": 17.2, "glyph": "\ud83d\udd73", "feature": "karst sinkhole (carbonate outcrop)"}}, {"type": "Feature", "geometry": {"type": "Point", "coordinates": [-74.328139, 42.654313]}, "properties": {"verify": 1, "verify_meaning": "positively identified", "host_unit": "Dhg", "area_m2": 22.6, "glyph": "\ud83d\udd73", "feature": "karst sinkhole (carbonate outcrop)"}}, {"type": "Feature", "geometry": {"type": "Point", "coordinates": [-74.331466, 42.643412]}, "properties": {"verify": 1, "verify_meaning": "positively identified", "host_unit": "Dhg", "area_m2": 10.9, "glyph": "\ud83d\udd73", "feature": "karst sinkhole (carbonate outcrop)"}}, {"type": "Feature", "geometry": {"type": "Point", "coordinates": [-74.354224, 42.634608]}, "properties": {"verify": 1, "verify_meaning": "positively identified", "host_unit": "Don", "area_m2": 17.3, "glyph": "\ud83d\udd73", "feature": "karst sinkhole (carbonate outcrop)"}}, {"type": "Feature", "geometry": {"type": "Point", "coordinates": [-74.328684, 42.630866]}, "properties": {"verify": 2, "verify_meaning": "unable to identify", "host_unit": "Dhg", "area_m2": 17.6, "glyph": "\ud83d\udd73", "feature": "karst sinkhole (carbonate outcrop)"}}, {"type": "Feature", "geometry": {"type": "Point", "coordinates": [-74.595553, 42.782676]}, "properties": {"verify": 1, "verify_meaning": "positively identified", "host_unit": "Dhg", "area_m2": 13.3, "glyph": "\ud83d\udd73", "feature": "karst sinkhole (carbonate outcrop)"}}]}