{"type": "FeatureCollection", "features": [{"type": "Feature", "geometry": {"type": "Polygon", "coordinates": [[[-74.32730128888764, 42.60793111976174], [-74.32729119761555, 42.60798710840895], [-74.32725733936334, 42.607990017386484], [-74.32725213881774, 42.60796685378876], [-74.32728066268923, 42.607962067726824], [-74.32729371019643, 42.607934508449304], [-74.32730128888764, 42.60793111976174]]]}, "properties": {"verify": 2, "verify_meaning": "unable to identify", "host_unit": "Dhm", "area_m2": 11.7, "glyph": "\ud83d\udd73", "feature": "possible covered karst (Hamilton over Onondaga)"}}, {"type": "Feature", "geometry": {"type": "Polygon", "coordinates": [[[-74.33860374913685, 42.58823847762769], [-74.3386957831997, 42.58824301481493], [-74.33875126054815, 42.58826754219183], [-74.33881470466025, 42.588302356849056], [-74.33883444183128, 42.58832086029214], [-74.33880101308623, 42.588314313272306], [-74.33874459350137, 42.58827898948528], [-74.33868160089116, 42.58826226792466], [-74.33865957142366, 42.5882514816931], [-74.33860867046104, 42.58824383557499], [-74.33860374913685, 42.58823847762769]]]}, "properties": {"verify": 1, "verify_meaning": "positively identified", "host_unit": "Dhm", "area_m2": 30.1, "glyph": "\ud83d\udd73", "feature": "possible covered karst (Hamilton over Onondaga)"}}, {"type": "Feature", "geometry": {"type": "Polygon", "coordinates": [[[-74.36053477914442, 42.5876875506102], [-74.36056063564449, 42.58770095720695], [-74.36053767334643, 42.58774527707419], [-74.36052288314309, 42.587722205384665], [-74.36053477914442, 42.5876875506102]]]}, "properties": {"verify": 1, "verify_meaning": "positively identified", "host_unit": "Dhm", "area_m2": 10.2, "glyph": "\ud83d\udd73", "feature": "possible covered karst (Hamilton over Onondaga)"}}, {"type": "Feature", "geometry": {"type": "Polygon", "coordinates": [[[-74.56508296053407, 42.74611838966114], [-74.56511234539963, 42.7461240672788], [-74.56510224620129, 42.74614180104777], [-74.56506195902419, 42.746149257692394], [-74.56505038765063, 42.74618641050748], [-74.56507202031399, 42.74619754118121], [-74.56499696026164, 42.74620964385598], [-74.56500444253227, 42.746185632494736], [-74.56499226044401, 42.74614459055728], [-74.5650154554657, 42.746139611704024], [-74.56503264718121, 42.74614252116306], [-74.56507793580994, 42.74612369779058], [-74.56508296053407, 42.74611838966114]]]}, "properties": {"verify": 1, "verify_meaning": "positively identified", "host_unit": "Dhm", "area_m2": 44.4, "glyph": "\ud83d\udd73", "feature": "possible covered karst (Hamilton over Onondaga)"}}, {"type": "Feature", "geometry": {"type": "Polygon", "coordinates": [[[-74.51280251467462, 42.730211376171304], [-74.512843776953, 42.730215984074135], [-74.5128339835318, 42.73023575845406], [-74.51277560735723, 42.73024889085197], [-74.51279774842033, 42.73022593265441], [-74.51280251467462, 42.730211376171304]]]}, "properties": {"verify": 1, "verify_meaning": "positively identified", "host_unit": "Dhm", "area_m2": 11.3, "glyph": "\ud83d\udd73", "feature": "possible covered karst (Hamilton over Onondaga)"}}, {"type": "Feature", "geometry": {"type": "Polygon", "coordinates": [[[-74.53023253714001, 42.72066631985408], [-74.53026100292124, 42.72067244760251], [-74.53026466003605, 42.72069518523655], [-74.5302033384698, 42.720751011476764], [-74.5301665842864, 42.720754228985435], [-74.53015179077468, 42.7207152067314], [-74.5302270667287, 42.72067129925517], [-74.53023253714001, 42.72066631985408]]]}, "properties": {"verify": 1, "verify_meaning": "positively identified", "host_unit": "Dhm", "area_m2": 49.8, "glyph": "\ud83d\udd73", "feature": "possible covered karst (Hamilton over Onondaga)"}}]}