{"type": "FeatureCollection", "features": [{"type": "Feature", "geometry": {"type": "Polygon", "coordinates": [[[-74.42623802278452, 42.742859362079216], [-74.42630150678595, 42.74286553826979], [-74.42627970291973, 42.74290297011921], [-74.42623350192746, 42.74288834829116], [-74.42623098661447, 42.74287258053171], [-74.42623802278452, 42.742859362079216]]]}, "properties": {"verify": 1, "verify_meaning": "positively identified", "host_unit": "Dhg", "area_m2": 18.5, "glyph": "\ud83d\udd73", "feature": "karst sinkhole (carbonate outcrop)"}}, {"type": "Feature", "geometry": {"type": "Polygon", "coordinates": [[[-74.4487892941194, 42.728003020317054], [-74.44881372286733, 42.72800313788242], [-74.44878218009146, 42.72808841067883], [-74.4487829871886, 42.728106381563244], [-74.44870933133748, 42.72809319819254], [-74.44872147402504, 42.72806969858671], [-74.44874668353256, 42.72807055645705], [-74.44874582603347, 42.7280515431909], [-74.44877092456095, 42.72803462260157], [-74.44877684053908, 42.72802997683984], [-74.44875988097955, 42.72802088972947], [-74.44878414841003, 42.728008241423886], [-74.4487892941194, 42.728003020317054]], [[-74.44877684053908, 42.72802997683984], [-74.44879176006935, 42.728026966199316], [-74.44878111855563, 42.72801901759548], [-74.44877684053908, 42.72802997683984]]]}, "properties": {"verify": 1, "verify_meaning": "positively identified", "host_unit": "Don", "area_m2": 42.2, "glyph": "\ud83d\udd73", "feature": "karst sinkhole (carbonate outcrop)"}}, {"type": "Feature", "geometry": {"type": "Polygon", "coordinates": [[[-74.43201409144037, 42.72711956975382], [-74.43207133652889, 42.72713258794608], [-74.43197593231807, 42.727186251077114], [-74.43195700189077, 42.72721697063709], [-74.43192124826474, 42.727204995592416], [-74.43189736314004, 42.72719501637787], [-74.43185587779891, 42.727211810208395], [-74.43180557445538, 42.72721453977534], [-74.43177474554551, 42.72721255978911], [-74.43168734721019, 42.72723918877796], [-74.43163973604524, 42.72723055604928], [-74.43153342541213, 42.72718072472849], [-74.43151503005885, 42.7270875093176], [-74.43149452384904, 42.72703604812311], [-74.4314599615497, 42.726989646496364], [-74.43147142778675, 42.72697690533497], [-74.43148404658854, 42.72697771769688], [-74.43150728867866, 42.726976456736466], [-74.43155294937412, 42.72699553640476], [-74.43162062247052, 42.72700498327711], [-74.431641966315, 42.72702350031323], [-74.43165501087185, 42.72703190215456], [-74.43166617732209, 42.7270506896788], [-74.43168981924096, 42.72704940648072], [-74.43171881024492, 42.72710113619608], [-74.43171208157723, 42.727158092846466], [-74.4317651260858, 42.72716150003487], [-74.43189838080026, 42.72714885512116], [-74.43192438179574, 42.727171407658254], [-74.43195920816146, 42.72716015643873], [-74.4319829320043, 42.72715055186717], [-74.43200800282288, 42.7271521624582], [-74.43201409144037, 42.72711956975382]]]}, "properties": {"verify": 1, "verify_meaning": "positively identified", "host_unit": "Dhg", "area_m2": 522.3, "glyph": "\ud83d\udd73", "feature": "karst sinkhole (carbonate outcrop)"}}, {"type": "Feature", "geometry": {"type": "Polygon", "coordinates": [[[-74.43313427957857, 42.722145083734816], [-74.43318532528221, 42.72214879037557], [-74.43319518159487, 42.722163396128266], [-74.43318825211495, 42.722167284150125], [-74.43315870914, 42.72220315991654], [-74.43314027621653, 42.72218339555532], [-74.43313427957857, 42.722145083734816]]]}, "properties": {"verify": 1, "verify_meaning": "positively identified", "host_unit": "Dhg", "area_m2": 19.3, "glyph": "\ud83d\udd73", "feature": "karst sinkhole (carbonate outcrop)"}}, {"type": "Feature", "geometry": {"type": "Polygon", "coordinates": [[[-74.41091533281052, 42.71979059241992], [-74.41092948150771, 42.719799705861796], [-74.41096924773889, 42.71985313425676], [-74.41087397926476, 42.71984381026651], [-74.41087042330736, 42.71980806021521], [-74.4109096339188, 42.719795400044184], [-74.41091533281052, 42.71979059241992]]]}, "properties": {"verify": 1, "verify_meaning": "positively identified", "host_unit": "Dhg", "area_m2": 33.6, "glyph": "\ud83d\udd73", "feature": "karst sinkhole (carbonate outcrop)"}}, {"type": "Feature", "geometry": {"type": "Polygon", "coordinates": [[[-74.37988602871, 42.70951362203345], [-74.37990402287444, 42.70951968648094], [-74.37993749952886, 42.709512194567196], [-74.3799144715885, 42.709562576366515], [-74.37987028880477, 42.70957100408036], [-74.37988150564225, 42.709545116816415], [-74.37987553286163, 42.7095305736538], [-74.37988602871, 42.70951362203345]]]}, "properties": {"verify": 1, "verify_meaning": "positively identified", "host_unit": "Dhg", "area_m2": 21.1, "glyph": "\ud83d\udd73", "feature": "karst sinkhole (carbonate outcrop)"}}, {"type": "Feature", "geometry": {"type": "Polygon", "coordinates": [[[-74.39233435874759, 42.70899498361757], [-74.39235308699969, 42.70899925154188], [-74.39239106085071, 42.709009764477976], [-74.39241359892964, 42.70900855167951], [-74.39243015227899, 42.709009620068784], [-74.39242411200951, 42.70906038912183], [-74.39238354262953, 42.70907145717976], [-74.39231614616845, 42.709030759520516], [-74.39233435874759, 42.70899498361757]]]}, "properties": {"verify": 2, "verify_meaning": "unable to identify", "host_unit": "Dhg", "area_m2": 51.1, "glyph": "\ud83d\udd73", "feature": "karst sinkhole (carbonate outcrop)"}}, {"type": "Feature", "geometry": {"type": "Polygon", "coordinates": [[[-74.37665875745815, 42.69643810589832], [-74.37671182140016, 42.69645870546611], [-74.37666263251118, 42.696477420629286], [-74.37659296428541, 42.696469548592894], [-74.37662752483234, 42.69644957978806], [-74.37665294297074, 42.69645680645309], [-74.37665875745815, 42.69643810589832]]]}, "properties": {"verify": 1, "verify_meaning": "positively identified", "host_unit": "Dhg", "area_m2": 20.1, "glyph": "\ud83d\udd73", "feature": "karst sinkhole (carbonate outcrop)"}}, {"type": "Feature", "geometry": {"type": "Polygon", "coordinates": [[[-74.37770185539036, 42.69467869434632], [-74.37773287751436, 42.694672671581806], [-74.37776851468833, 42.69463787201676], [-74.37779262028239, 42.69462484644899], [-74.37780503465807, 42.69464839509816], [-74.37784336921018, 42.694656289685625], [-74.37785359571122, 42.69467567545953], [-74.377877414303, 42.694704540734215], [-74.37786306862736, 42.694763390107525], [-74.37782121038127, 42.69478601075763], [-74.37779336980661, 42.69477308996908], [-74.37772155588122, 42.694761781520036], [-74.37770654383105, 42.69473332023425], [-74.37766580572726, 42.694710620257325], [-74.37769641429921, 42.69470183819203], [-74.37770185539036, 42.69467869434632]]]}, "properties": {"verify": 1, "verify_meaning": "positively identified", "host_unit": "Dhg", "area_m2": 175.9, "glyph": "\ud83d\udd73", "feature": "karst sinkhole (carbonate outcrop)"}}, {"type": "Feature", "geometry": {"type": "Polygon", "coordinates": [[[-74.47370749532912, 42.69189103660198], [-74.47373695786504, 42.69189691476306], [-74.47372158409124, 42.691948894247915], [-74.47369970718486, 42.69193201826424], [-74.47370233256255, 42.69192253229069], [-74.47369834930485, 42.691907167624166], [-74.47370749532912, 42.69189103660198]]]}, "properties": {"verify": 1, "verify_meaning": "positively identified", "host_unit": "Don", "area_m2": 12.8, "glyph": "\ud83d\udd73", "feature": "karst sinkhole (carbonate outcrop)"}}, {"type": "Feature", "geometry": {"type": "Polygon", "coordinates": [[[-74.44641604235322, 42.674804928321194], [-74.44639271001981, 42.67481186875008], [-74.44636659590664, 42.67479786481683], [-74.44635572983118, 42.674755844939554], [-74.44643309018636, 42.67477488074652], [-74.44641604235322, 42.674804928321194]]]}, "properties": {"verify": 1, "verify_meaning": "positively identified", "host_unit": "Don", "area_m2": 23.5, "glyph": "\ud83d\udd73", "feature": "karst sinkhole (carbonate outcrop)"}}, {"type": "Feature", "geometry": {"type": "Polygon", "coordinates": [[[-74.337576046446, 42.62312947945853], [-74.3375613782822, 42.623144344855014], [-74.33753934129405, 42.62314099614497], [-74.33752026527199, 42.62314366546931], [-74.33750292256893, 42.623125497572566], [-74.33747807329699, 42.62315068414295], [-74.33746275366707, 42.62311299356184], [-74.33748525432597, 42.623116412851004], [-74.33752433856768, 42.62309840360998], [-74.33753495247149, 42.62310622646374], [-74.33752750307876, 42.62313295871527], [-74.33754660851285, 42.62312554928932], [-74.33755900877998, 42.62307158718451], [-74.33759681456351, 42.623088796057154], [-74.33758318931643, 42.623125760808], [-74.337576046446, 42.62312947945853]], [[-74.337576046446, 42.62312947945853], [-74.33757198915778, 42.623118475984285], [-74.33756121222116, 42.623126310914216], [-74.337576046446, 42.62312947945853]]]}, "properties": {"verify": 1, "verify_meaning": "positively identified", "host_unit": "Dhg", "area_m2": 38.7, "glyph": "\ud83d\udd73", "feature": "karst sinkhole (carbonate outcrop)"}}, {"type": "Feature", "geometry": {"type": "Polygon", "coordinates": [[[-74.268778364295, 42.711385347848264], [-74.26883244572232, 42.711392478000306], [-74.26880556862062, 42.71142170616648], [-74.26874948758027, 42.711427451457986], [-74.26877288058999, 42.711399401500024], [-74.268778364295, 42.711385347848264]]]}, "properties": {"verify": 1, "verify_meaning": "positively identified", "host_unit": "Dhg", "area_m2": 17.2, "glyph": "\ud83d\udd73", "feature": "karst sinkhole (carbonate outcrop)"}}, {"type": "Feature", "geometry": {"type": "Polygon", "coordinates": [[[-74.32814396070972, 42.65428461670659], [-74.32817194652094, 42.654290550041935], [-74.32817625287689, 42.65431330912173], [-74.32813117942935, 42.65433857525101], [-74.32811752114911, 42.65435142308177], [-74.32810250292376, 42.65432984119845], [-74.32812610199437, 42.654316611948104], [-74.32813147023822, 42.65431156020317], [-74.32810707090161, 42.654311417096324], [-74.32810726478101, 42.6542934070644], [-74.32814386377538, 42.654293621722594], [-74.32814396070972, 42.65428461670659]], [[-74.32813117942935, 42.65433857525101], [-74.32812712180403, 42.6543275758965], [-74.32811633834824, 42.6543354013306], [-74.32813117942935, 42.65433857525101]], [[-74.32813147023822, 42.65431156020317], [-74.32814637776731, 42.65430856076097], [-74.32813576414382, 42.65430060983105], [-74.32813147023822, 42.65431156020317]]]}, "properties": {"verify": 1, "verify_meaning": "positively identified", "host_unit": "Dhg", "area_m2": 22.6, "glyph": "\ud83d\udd73", "feature": "karst sinkhole (carbonate outcrop)"}}, {"type": "Feature", "geometry": {"type": "Polygon", "coordinates": [[[-74.33145707060116, 42.6433982263514], [-74.33149776458225, 42.64340284350685], [-74.33150210069918, 42.64341341345561], [-74.3314344310839, 42.64342854090158], [-74.33143719387185, 42.64341054582147], [-74.33145235939855, 42.64340377459137], [-74.33145707060116, 42.6433982263514]]]}, "properties": {"verify": 1, "verify_meaning": "positively identified", "host_unit": "Dhg", "area_m2": 10.9, "glyph": "\ud83d\udd73", "feature": "karst sinkhole (carbonate outcrop)"}}, {"type": "Feature", "geometry": {"type": "Polygon", "coordinates": [[[-74.35418826994245, 42.63458605453276], [-74.35425447669114, 42.63459474738504], [-74.35424088710042, 42.634635301604284], [-74.35420866781114, 42.63462428509931], [-74.35418826994245, 42.63458605453276]]]}, "properties": {"verify": 1, "verify_meaning": "positively identified", "host_unit": "Don", "area_m2": 17.3, "glyph": "\ud83d\udd73", "feature": "karst sinkhole (carbonate outcrop)"}}, {"type": "Feature", "geometry": {"type": "Polygon", "coordinates": [[[-74.3286769073545, 42.630819140038525], [-74.32869703798465, 42.63082996976537], [-74.32869250100083, 42.63084624827879], [-74.32870555225334, 42.63089714847097], [-74.32865551255802, 42.6308962923913], [-74.32867117914489, 42.63087838175096], [-74.3286769073545, 42.630819140038525]]]}, "properties": {"verify": 2, "verify_meaning": "unable to identify", "host_unit": "Dhg", "area_m2": 17.6, "glyph": "\ud83d\udd73", "feature": "karst sinkhole (carbonate outcrop)"}}, {"type": "Feature", "geometry": {"type": "Polygon", "coordinates": [[[-74.59556264443381, 42.782648096974604], [-74.59557809227192, 42.78265518701118], [-74.59555443256448, 42.78270553026593], [-74.59552863107284, 42.7826905590966], [-74.59554277486414, 42.78266046201371], [-74.59555794602562, 42.7826536560003], [-74.59556264443381, 42.782648096974604]]]}, "properties": {"verify": 1, "verify_meaning": "positively identified", "host_unit": "Dhg", "area_m2": 13.3, "glyph": "\ud83d\udd73", "feature": "karst sinkhole (carbonate outcrop)"}}]}