{"type": "FeatureCollection", "features": [{"type": "Feature", "geometry": {"type": "Point", "coordinates": [-73.910686, 42.498734]}, "properties": {"verify": 1, "verify_meaning": "positively identified", "host_unit": "Dhm", "area_m2": 24.0, "glyph": "\ud83d\udd73", "feature": "possible covered karst (Hamilton over Onondaga)"}}, {"type": "Feature", "geometry": {"type": "Point", "coordinates": [-73.908286, 42.465256]}, "properties": {"verify": 1, "verify_meaning": "positively identified", "host_unit": "Dhm", "area_m2": 54.9, "glyph": "\ud83d\udd73", "feature": "possible covered karst (Hamilton over Onondaga)"}}, {"type": "Feature", "geometry": {"type": "Point", "coordinates": [-73.90937, 42.503559]}, "properties": {"verify": 1, "verify_meaning": "positively identified", "host_unit": "Dhm", "area_m2": 24.0, "glyph": "\ud83d\udd73", "feature": "possible covered karst (Hamilton over Onondaga)"}}, {"type": "Feature", "geometry": {"type": "Point", "coordinates": [-74.247497, 42.63627]}, "properties": {"verify": 2, "verify_meaning": "unable to identify", "host_unit": "Dhm", "area_m2": 13.5, "glyph": "\ud83d\udd73", "feature": "possible covered karst (Hamilton over Onondaga)"}}, {"type": "Feature", "geometry": {"type": "Point", "coordinates": [-74.204445, 42.623258]}, "properties": {"verify": 1, "verify_meaning": "positively identified", "host_unit": "Dhm", "area_m2": 12.1, "glyph": "\ud83d\udd73", "feature": "possible covered karst (Hamilton over Onondaga)"}}, {"type": "Feature", "geometry": {"type": "Point", "coordinates": [-74.159488, 42.604299]}, "properties": {"verify": 1, "verify_meaning": "positively identified", "host_unit": "Dhm", "area_m2": 272.0, "glyph": "\ud83d\udd73", "feature": "possible covered karst (Hamilton over Onondaga)"}}, {"type": "Feature", "geometry": {"type": "Point", "coordinates": [-74.064293, 42.61057]}, "properties": {"verify": 1, "verify_meaning": "positively identified", "host_unit": "Dhm", "area_m2": 14.2, "glyph": "\ud83d\udd73", "feature": "possible covered karst (Hamilton over Onondaga)"}}, {"type": "Feature", "geometry": {"type": "Point", "coordinates": [-74.022286, 42.596347]}, "properties": {"verify": 1, "verify_meaning": "positively identified", "host_unit": "Dhm", "area_m2": 116.3, "glyph": "\ud83d\udd73", "feature": "possible covered karst (Hamilton over Onondaga)"}}]}