{"type": "FeatureCollection", "features": [{"type": "Feature", "geometry": {"type": "Point", "coordinates": [-74.071068, 42.680644]}, "properties": {"verify": 1, "verify_meaning": "positively identified", "host_unit": "Dhg", "area_m2": 14.2, "glyph": "\ud83d\udd73", "feature": "karst sinkhole (carbonate outcrop)"}}, {"type": "Feature", "geometry": {"type": "Point", "coordinates": [-74.073981, 42.678803]}, "properties": {"verify": 1, "verify_meaning": "positively identified", "host_unit": "Dhg", "area_m2": 66.8, "glyph": "\ud83d\udd73", "feature": "karst sinkhole (carbonate outcrop)"}}, {"type": "Feature", "geometry": {"type": "Point", "coordinates": [-74.113053, 42.677652]}, "properties": {"verify": 1, "verify_meaning": "positively identified", "host_unit": "Dhg", "area_m2": 21.9, "glyph": "\ud83d\udd73", "feature": "karst sinkhole (carbonate outcrop)"}}, {"type": "Feature", "geometry": {"type": "Point", "coordinates": [-74.103854, 42.667363]}, "properties": {"verify": 1, "verify_meaning": "positively identified", "host_unit": "Don", "area_m2": 10.2, "glyph": "\ud83d\udd73", "feature": "karst sinkhole (carbonate outcrop)"}}, {"type": "Feature", "geometry": {"type": "Point", "coordinates": [-74.019974, 42.644975]}, "properties": {"verify": 2, "verify_meaning": "unable to identify", "host_unit": "Don", "area_m2": 40.0, "glyph": "\ud83d\udd73", "feature": "karst sinkhole (carbonate outcrop)"}}, {"type": "Feature", "geometry": {"type": "Point", "coordinates": [-74.005749, 42.637889]}, "properties": {"verify": 1, "verify_meaning": "positively identified", "host_unit": "Don", "area_m2": 84.0, "glyph": "\ud83d\udd73", "feature": "karst sinkhole (carbonate outcrop)"}}, {"type": "Feature", "geometry": {"type": "Point", "coordinates": [-73.940394, 42.598301]}, "properties": {"verify": 1, "verify_meaning": "positively identified", "host_unit": "Dhg", "area_m2": 17.1, "glyph": "\ud83d\udd73", "feature": "karst sinkhole (carbonate outcrop)"}}, {"type": "Feature", "geometry": {"type": "Point", "coordinates": [-73.982385, 42.587195]}, "properties": {"verify": 1, "verify_meaning": "positively identified", "host_unit": "Don", "area_m2": 10.1, "glyph": "\ud83d\udd73", "feature": "karst sinkhole (carbonate outcrop)"}}, {"type": "Feature", "geometry": {"type": "Point", "coordinates": [-73.967697, 42.584646]}, "properties": {"verify": 1, "verify_meaning": "positively identified", "host_unit": "Don", "area_m2": 16.0, "glyph": "\ud83d\udd73", "feature": "karst sinkhole (carbonate outcrop)"}}, {"type": "Feature", "geometry": {"type": "Point", "coordinates": [-73.90609, 42.582981]}, "properties": {"verify": 1, "verify_meaning": "positively identified", "host_unit": "Dhg", "area_m2": 441.6, "glyph": "\ud83d\udd73", "feature": "karst sinkhole (carbonate outcrop)"}}, {"type": "Feature", "geometry": {"type": "Point", "coordinates": [-73.965651, 42.577378]}, "properties": {"verify": 1, "verify_meaning": "positively identified", "host_unit": "Don", "area_m2": 191.2, "glyph": "\ud83d\udd73", "feature": "karst sinkhole (carbonate outcrop)"}}, {"type": "Feature", "geometry": {"type": "Point", "coordinates": [-73.881638, 42.567165]}, "properties": {"verify": 1, "verify_meaning": "positively identified", "host_unit": "Dhg", "area_m2": 41.0, "glyph": "\ud83d\udd73", "feature": "karst sinkhole (carbonate outcrop)"}}, {"type": "Feature", "geometry": {"type": "Point", "coordinates": [-73.872061, 42.555716]}, "properties": {"verify": 1, "verify_meaning": "positively identified", "host_unit": "Dhg", "area_m2": 18.8, "glyph": "\ud83d\udd73", "feature": "karst sinkhole (carbonate outcrop)"}}, {"type": "Feature", "geometry": {"type": "Point", "coordinates": [-73.866922, 42.553645]}, "properties": {"verify": 1, "verify_meaning": "positively identified", "host_unit": "Dhg", "area_m2": 33.1, "glyph": "\ud83d\udd73", "feature": "karst sinkhole (carbonate outcrop)"}}, {"type": "Feature", "geometry": {"type": "Point", "coordinates": [-73.867479, 42.539687]}, "properties": {"verify": 1, "verify_meaning": "positively identified", "host_unit": "Dhg", "area_m2": 60.9, "glyph": "\ud83d\udd73", "feature": "karst sinkhole (carbonate outcrop)"}}, {"type": "Feature", "geometry": {"type": "Point", "coordinates": [-74.226853, 42.704772]}, "properties": {"verify": 1, "verify_meaning": "positively identified", "host_unit": "Dhg", "area_m2": 217.5, "glyph": "\ud83d\udd73", "feature": "karst sinkhole (carbonate outcrop)"}}, {"type": "Feature", "geometry": {"type": "Point", "coordinates": [-74.125676, 42.68425]}, "properties": {"verify": 1, "verify_meaning": "positively identified", "host_unit": "Dhg", "area_m2": 487.2, "glyph": "\ud83d\udd73", "feature": "karst sinkhole (carbonate outcrop)"}}, {"type": "Feature", "geometry": {"type": "Point", "coordinates": [-74.210446, 42.682356]}, "properties": {"verify": 1, "verify_meaning": "positively identified", "host_unit": "Dhg", "area_m2": 13.8, "glyph": "\ud83d\udd73", "feature": "karst sinkhole (carbonate outcrop)"}}, {"type": "Feature", "geometry": {"type": "Point", "coordinates": [-74.202716, 42.664283]}, "properties": {"verify": 2, "verify_meaning": "unable to identify", "host_unit": "Dhg", "area_m2": 13.3, "glyph": "\ud83d\udd73", "feature": "karst sinkhole (carbonate outcrop)"}}, {"type": "Feature", "geometry": {"type": "Point", "coordinates": [-74.162408, 42.652603]}, "properties": {"verify": 1, "verify_meaning": "positively identified", "host_unit": "Don", "area_m2": 75.3, "glyph": "\ud83d\udd73", "feature": "karst sinkhole (carbonate outcrop)"}}, {"type": "Feature", "geometry": {"type": "Point", "coordinates": [-73.832267, 42.470541]}, "properties": {"verify": 1, "verify_meaning": "positively identified", "host_unit": "Dhg", "area_m2": 17.6, "glyph": "\ud83d\udd73", "feature": "karst sinkhole (carbonate outcrop)"}}, {"type": "Feature", "geometry": {"type": "Point", "coordinates": [-73.855827, 42.463586]}, "properties": {"verify": 2, "verify_meaning": "unable to identify", "host_unit": "Don", "area_m2": 17.1, "glyph": "\ud83d\udd73", "feature": "karst sinkhole (carbonate outcrop)"}}]}