{"type": "FeatureCollection", "name": "cannon_pfas_sites", "features": [{"type": "Feature", "geometry": {"type": "Point", "coordinates": [-103.3045778, 34.36572778]}, "properties": {"study_id": "CANNON_AFB", "site_type": "Groundwater Well", "location_id": "USGS-342157103181601", "usgs_name": "02N.35E.30.4231 MW-Ca", "short": "MW-CA", "coord_source": "Sample_and_Site_Metadata.csv (exact, NAD83)", "well_depth_ft": 350.0, "screen_top_ft": 329.7, "screen_bottom_ft": 349.7, "installed": "2017-08-16", "casing": "PVC", "unit": "ng/L", "n_samples": 1, "first": "2022-06-17", "last": "2022-06-17", "n_pfas_detected": 14, "sum_pfas_max_sample": 54149.3, "PFOS_max": 27819.3, "PFOA_max": 1455.6, "PFHxS_max": 6352.3, "PFBS_max": 573.3, "PFHxA_max": 2875.3, "PFNA_max": 20.5}}, {"type": "Feature", "geometry": {"type": "Point", "coordinates": [-103.3067889, 34.36586944]}, "properties": {"study_id": "CANNON_AFB", "site_type": "Groundwater Well", "location_id": "USGS-342157103181701", "usgs_name": "02N.35E.30.414 MW-D", "short": "MW-D", "coord_source": "Sample_and_Site_Metadata.csv (exact, NAD83)", "well_depth_ft": 355.0, "screen_top_ft": 340.0, "screen_bottom_ft": 355.0, "installed": "1984-12-16", "casing": "PVC", "unit": "ng/L", "n_samples": 1, "first": "2022-06-17", "last": "2022-06-17", "n_pfas_detected": 13, "sum_pfas_max_sample": 15683.1, "PFOS_max": 2027.9, "PFOA_max": 1487.2, "PFHxS_max": 6087.7, "PFBS_max": 207.3, "PFHxA_max": 1320.0, "PFNA_max": 20.7}}, {"type": "Feature", "geometry": {"type": "Point", "coordinates": [-103.3048417, 34.38547778]}, "properties": {"study_id": "CANNON_AFB", "site_type": "Groundwater Well", "location_id": "USGS-342307103181601", "usgs_name": "02N.35E.19.241 MW-H", "short": "MW-H", "coord_source": "Sample_and_Site_Metadata.csv (exact, NAD83)", "well_depth_ft": 349.8, "screen_top_ft": 324.8, "screen_bottom_ft": 344.8, "installed": "1985-11-18", "casing": "PVC", "unit": "ng/L", "n_samples": 2, "first": "2022-06-17", "last": "2022-06-17", "n_pfas_detected": 9, "sum_pfas_max_sample": 1345.8, "PFOS_max": 291.8, "PFOA_max": 33.3, "PFHxS_max": 349.6, "PFBS_max": 54.7, "PFHxA_max": 105.6, "PFNA_max": null}}, {"type": "Feature", "geometry": {"type": "Point", "coordinates": [-103.3014139, 34.38358056]}, "properties": {"study_id": "CANNON_AFB", "site_type": "Groundwater Well", "location_id": "USGS-342301103180501", "usgs_name": "02N.35E.20.133 MW-Y", "short": "MW-Y", "coord_source": "Sample_and_Site_Metadata.csv (exact, NAD83)", "well_depth_ft": 357.0, "screen_top_ft": 316.4, "screen_bottom_ft": 356.4, "installed": "2019-02-06", "casing": "PVC", "unit": "ng/L", "n_samples": 1, "first": "2022-06-16", "last": "2022-06-16", "n_pfas_detected": 9, "sum_pfas_max_sample": 1324.4, "PFOS_max": 87.8, "PFOA_max": 31.9, "PFHxS_max": 336.0, "PFBS_max": 66.0, "PFHxA_max": 249.1, "PFNA_max": null}}, {"type": "Feature", "geometry": {"type": "Point", "coordinates": [-103.3028028, 34.3661111]}, "properties": {"study_id": "CANNON_AFB", "site_type": "Groundwater Well", "location_id": "USGS-342158103181001", "usgs_name": "02N.35E.30.424 MW-Sa", "short": "MW-SA", "coord_source": "Sample_and_Site_Metadata.csv (exact, NAD83)", "well_depth_ft": 362.0, "screen_top_ft": 321.7, "screen_bottom_ft": 361.7, "installed": "2017-08-16", "casing": "PVC", "unit": "ng/L", "n_samples": 1, "first": "2022-06-17", "last": "2022-06-17", "n_pfas_detected": 9, "sum_pfas_max_sample": 1057.2, "PFOS_max": null, "PFOA_max": 80.1, "PFHxS_max": 194.6, "PFBS_max": 126.6, "PFHxA_max": 269.7, "PFNA_max": null}}, {"type": "Feature", "geometry": {"type": "Point", "coordinates": [-103.2973667, 34.38345]}, "properties": {"study_id": "CANNON_AFB", "site_type": "Groundwater Well", "location_id": "USGS-342300103175001", "usgs_name": "02N.35E.20.134 MW-Oa", "short": "MW-OA", "coord_source": "Sample_and_Site_Metadata.csv (exact, NAD83)", "well_depth_ft": 366.2, "screen_top_ft": 301.2, "screen_bottom_ft": 361.2, "installed": "2004-02-29", "casing": "PVC", "unit": "ng/L", "n_samples": 1, "first": "2022-06-16", "last": "2022-06-16", "n_pfas_detected": 7, "sum_pfas_max_sample": 443.2, "PFOS_max": null, "PFOA_max": 11.9, "PFHxS_max": 157.4, "PFBS_max": 21.3, "PFHxA_max": 64.2, "PFNA_max": null}}, {"type": "Feature", "geometry": {"type": "Point", "coordinates": [-103.3033333, 34.38683056]}, "properties": {"study_id": "CANNON_AFB", "site_type": "Groundwater Well", "location_id": "USGS-342313103181201", "usgs_name": "02N.35E.19.2244 MW-Ga", "short": "MW-GA", "coord_source": "Sample_and_Site_Metadata.csv (exact, NAD83)", "well_depth_ft": 355.5, "screen_top_ft": 320.2, "screen_bottom_ft": 355.2, "installed": "2017-08-27", "casing": "PVC", "unit": "ng/L", "n_samples": 2, "first": "2022-06-16", "last": "2022-06-16", "n_pfas_detected": 3, "sum_pfas_max_sample": 95.6, "PFOS_max": null, "PFOA_max": null, "PFHxS_max": 41.1, "PFBS_max": 11.2, "PFHxA_max": null, "PFNA_max": null}}, {"type": "Feature", "geometry": {"type": "Point", "coordinates": [-103.3086111, 34.37194444]}, "properties": {"study_id": "CANNON_AFB", "site_type": "Groundwater Well", "location_id": "USGS-342218103182601", "usgs_name": "02N.35E.30.23121 MW-A", "short": "MW-A", "coord_source": "Sample_and_Site_Metadata.csv (exact, NAD83)", "well_depth_ft": 340.13, "screen_top_ft": 325.13, "screen_bottom_ft": 340.13, "installed": "1985-01-07", "casing": "PVC", "unit": "ng/L", "n_samples": 1, "first": "2022-06-16", "last": "2022-06-16", "n_pfas_detected": 4, "sum_pfas_max_sample": 77.1, "PFOS_max": null, "PFOA_max": null, "PFHxS_max": 35.3, "PFBS_max": 8.6, "PFHxA_max": null, "PFNA_max": null}}, {"type": "Feature", "geometry": {"type": "Point", "coordinates": [-103.3028778, 34.3674083]}, "properties": {"study_id": "CANNON_AFB", "site_type": "Groundwater Well", "location_id": "USGS-342203103181001", "usgs_name": "02N.35E.30.4223A MW-B", "short": "MW-B", "coord_source": "Sample_and_Site_Metadata.csv (exact, NAD83)", "well_depth_ft": 362.9, "screen_top_ft": 347.9, "screen_bottom_ft": 362.9, "installed": "1984-11-30", "casing": "PVC", "unit": "ng/L", "n_samples": 1, "first": "2022-06-15", "last": "2022-06-15", "n_pfas_detected": 2, "sum_pfas_max_sample": 64.3, "PFOS_max": null, "PFOA_max": null, "PFHxS_max": null, "PFBS_max": 38.1, "PFHxA_max": null, "PFNA_max": null}}, {"type": "Feature", "geometry": {"type": "Point", "coordinates": [-103.3026361, 34.36661667]}, "properties": {"study_id": "CANNON_AFB", "site_type": "Groundwater Well", "location_id": "USGS-342200103180902", "usgs_name": "02N.35E.30.4242 MW-Ta", "short": "MW-TA", "coord_source": "Sample_and_Site_Metadata.csv (exact, NAD83)", "well_depth_ft": 362.4, "screen_top_ft": 327.4, "screen_bottom_ft": 362.4, "installed": "2017-08-08", "casing": "PVC", "unit": "ng/L", "n_samples": 1, "first": "2022-06-15", "last": "2022-06-15", "n_pfas_detected": 2, "sum_pfas_max_sample": 47.8, "PFOS_max": null, "PFOA_max": null, "PFHxS_max": null, "PFBS_max": 21.8, "PFHxA_max": null, "PFNA_max": null}}, {"type": "Feature", "geometry": {"type": "Point", "coordinates": [-103.3072861, 34.3906972]}, "properties": {"study_id": "CANNON_AFB", "site_type": "Groundwater Well", "location_id": "USGS-342328103182401", "usgs_name": "02N.35E.18.4343 MW-E", "short": "MW-E", "coord_source": "Sample_and_Site_Metadata.csv (exact, NAD83)", "well_depth_ft": 349.09, "screen_top_ft": 334.09, "screen_bottom_ft": 349.09, "installed": "1985-11-17", "casing": "PVC", "unit": "ng/L", "n_samples": 1, "first": "2022-06-14", "last": "2022-06-14", "n_pfas_detected": 2, "sum_pfas_max_sample": 35.1, "PFOS_max": null, "PFOA_max": null, "PFHxS_max": null, "PFBS_max": 8.3, "PFHxA_max": null, "PFNA_max": null}}, {"type": "Feature", "geometry": {"type": "Point", "coordinates": [-103.302775, 34.36796667]}, "properties": {"study_id": "CANNON_AFB", "site_type": "Groundwater Well", "location_id": "USGS-342205103181002", "usgs_name": "02N35E.30.4221 MW-Ua", "short": "MW-UA", "coord_source": "Sample_and_Site_Metadata.csv (exact, NAD83)", "well_depth_ft": 361.3, "screen_top_ft": 321.0, "screen_bottom_ft": 361.0, "installed": "2017-08-19", "casing": "PVC", "unit": "ng/L", "n_samples": 1, "first": "2022-06-15", "last": "2022-06-15", "n_pfas_detected": 1, "sum_pfas_max_sample": 31.6, "PFOS_max": null, "PFOA_max": null, "PFHxS_max": null, "PFBS_max": 31.6, "PFHxA_max": null, "PFNA_max": null}}, {"type": "Feature", "geometry": {"type": "Point", "coordinates": [-103.3023028, 34.3892222]}, "properties": {"study_id": "CANNON_AFB", "site_type": "Groundwater Well", "location_id": "USGS-342321103180801", "usgs_name": "02N.35E.19.2224 MW-Rb", "short": "MW-RB", "coord_source": "Sample_and_Site_Metadata.csv (exact, NAD83)", "well_depth_ft": 331.39, "screen_top_ft": 301.39, "screen_bottom_ft": 331.39, "installed": "2012-10-04", "casing": "PVC", "unit": "ng/L", "n_samples": 1, "first": "2022-06-15", "last": "2022-06-15", "n_pfas_detected": 1, "sum_pfas_max_sample": 19.9, "PFOS_max": null, "PFOA_max": null, "PFHxS_max": null, "PFBS_max": null, "PFHxA_max": null, "PFNA_max": null}}, {"type": "Feature", "geometry": {"type": "Point", "coordinates": [-103.3286556, 34.37281667]}, "properties": {"study_id": "CANNON_AFB", "site_type": "Groundwater Well", "location_id": "USGS-342222103194301", "usgs_name": "02N.34E.25.124 MW-X", "short": "MW-X", "coord_source": "Sample_and_Site_Metadata.csv (exact, NAD83)", "well_depth_ft": 336.64, "screen_top_ft": 291.64, "screen_bottom_ft": 331.64, "installed": "2004-02-26", "casing": "PVC", "unit": "ng/L", "n_samples": 1, "first": "2022-06-13", "last": "2022-06-13", "n_pfas_detected": 0, "sum_pfas_max_sample": null, "PFOS_max": null, "PFOA_max": null, "PFHxS_max": null, "PFBS_max": null, "PFHxA_max": null, "PFNA_max": null}}, {"type": "Feature", "geometry": {"type": "Point", "coordinates": [-103.3023056, 34.38626667]}, "properties": {"study_id": "CANNON_AFB", "site_type": "Groundwater Well", "location_id": "USGS-342310103180801", "usgs_name": "02N.35E.19.242 MW-Pa", "short": "MW-PA", "coord_source": "Sample_and_Site_Metadata.csv (exact, NAD83)", "well_depth_ft": 361.54, "screen_top_ft": 296.54, "screen_bottom_ft": 356.54, "installed": "2004-02-21", "casing": "PVC", "unit": "ng/L", "n_samples": 1, "first": "2022-06-15", "last": "2022-06-15", "n_pfas_detected": 0, "sum_pfas_max_sample": null, "PFOS_max": null, "PFOA_max": null, "PFHxS_max": null, "PFBS_max": null, "PFHxA_max": null, "PFNA_max": null}}, {"type": "Feature", "geometry": {"type": "Point", "coordinates": [-103.2962917, 34.3883972]}, "properties": {"study_id": "CANNON_AFB", "site_type": "Groundwater Well", "location_id": "USGS-342318103174601", "usgs_name": "02N.35E.20.121 MW-Na", "short": "MW-NA", "coord_source": "Sample_and_Site_Metadata.csv (exact, NAD83)", "well_depth_ft": 355.81, "screen_top_ft": 291.9, "screen_bottom_ft": 351.9, "installed": "2004-12-16", "casing": "PVC", "unit": "ng/L", "n_samples": 1, "first": "2022-06-14", "last": "2022-06-14", "n_pfas_detected": 0, "sum_pfas_max_sample": null, "PFOS_max": null, "PFOA_max": null, "PFHxS_max": null, "PFBS_max": null, "PFHxA_max": null, "PFNA_max": null}}, {"type": "Feature", "geometry": {"type": "Point", "coordinates": [-103.3040194, 34.3892222]}, "properties": {"study_id": "CANNON_AFB", "site_type": "Groundwater Well", "location_id": "USGS-342321103181401", "usgs_name": "02N.35E.19.2215 MW-Fa", "short": "MW-FA", "coord_source": "Sample_and_Site_Metadata.csv (exact, NAD83)", "well_depth_ft": 350.0, "screen_top_ft": 314.7, "screen_bottom_ft": 349.7, "installed": "2017-08-21", "casing": "PVC", "unit": "ng/L", "n_samples": 1, "first": "2022-06-14", "last": "2022-06-14", "n_pfas_detected": 0, "sum_pfas_max_sample": null, "PFOS_max": null, "PFOA_max": null, "PFHxS_max": null, "PFBS_max": null, "PFHxA_max": null, "PFNA_max": null}}, {"type": "Feature", "geometry": {"type": "Point", "coordinates": [-103.2993472, 34.39684444]}, "properties": {"study_id": "CANNON_AFB", "site_type": "Groundwater Well", "location_id": "USGS-342348103175801", "usgs_name": "02N.35E.17.3121 (CAFB-W)", "short": "MW-W", "coord_source": "Sample_and_Site_Metadata.csv (exact, NAD83)", "well_depth_ft": 365.94, "screen_top_ft": 300.94, "screen_bottom_ft": 360.94, "installed": "2002-06-01", "casing": "PVC", "unit": "ng/L", "n_samples": 1, "first": "2022-06-14", "last": "2022-06-14", "n_pfas_detected": 0, "sum_pfas_max_sample": null, "PFOS_max": null, "PFOA_max": null, "PFHxS_max": null, "PFBS_max": null, "PFHxA_max": null, "PFNA_max": null}}, {"type": "Feature", "geometry": {"type": "Point", "coordinates": [-103.3368306, 34.40499444]}, "properties": {"study_id": "CANNON_AFB", "site_type": "Groundwater Well", "location_id": "USGS-342418103201201", "usgs_name": "02N.34E.11.4444 MW-V", "short": "MW-V", "coord_source": "Sample_and_Site_Metadata.csv (exact, NAD83)", "well_depth_ft": 370.11, "screen_top_ft": 305.11, "screen_bottom_ft": 365.11, "installed": "2001-08-08", "casing": "PVC", "unit": "ng/L", "n_samples": 1, "first": "2022-06-13", "last": "2022-06-13", "n_pfas_detected": 0, "sum_pfas_max_sample": null, "PFOS_max": null, "PFOA_max": null, "PFHxS_max": null, "PFBS_max": null, "PFHxA_max": null, "PFNA_max": null}}, {"type": "Feature", "geometry": {"type": "Point", "coordinates": [-103.3088861, 34.37303889]}, "properties": {"study_id": "CANNON_AFB", "site_type": "Lysimeter", "location_id": "USGS-342223103183201", "usgs_name": "ACTIVE FIRE TRAINING AREA", "short": "T4-LB", "coord_source": "Sample_and_Site_Metadata.csv (exact, NAD83)", "well_depth_ft": 12.0, "screen_top_ft": null, "screen_bottom_ft": null, "installed": "2022-04-05", "casing": null, "unit": "ng/L", "n_samples": 1, "first": "2022-10-12", "last": "2022-10-12", "n_pfas_detected": 10, "sum_pfas_max_sample": 31297.4, "PFOS_max": 888.7, "PFOA_max": 302.0, "PFHxS_max": 3421.0, "PFBS_max": 1287.7, "PFHxA_max": 4418.7, "PFNA_max": null}}, {"type": "Feature", "geometry": {"type": "Point", "coordinates": [-103.3272917, 34.37541389]}, "properties": {"study_id": "CANNON_AFB", "site_type": "Lysimeter", "location_id": "USGS-342231103193801", "usgs_name": "SOUTH PLAYA LAKE OUTFALL", "short": "T2-LB", "coord_source": "Sample_and_Site_Metadata.csv (exact, NAD83)", "well_depth_ft": 10.0, "screen_top_ft": null, "screen_bottom_ft": null, "installed": "2022-04-06", "casing": null, "unit": "ng/L", "n_samples": 3, "first": "2022-10-12", "last": "2023-05-02", "n_pfas_detected": 18, "sum_pfas_max_sample": 23547.9, "PFOS_max": 1858.0, "PFOA_max": 1587.1, "PFHxS_max": 9160.9, "PFBS_max": 222.2, "PFHxA_max": 6148.4, "PFNA_max": 77.1}}, {"type": "Feature", "geometry": {"type": "Point", "coordinates": [-103.3053333, 34.3702722]}, "properties": {"study_id": "CANNON_AFB", "site_type": "Lysimeter", "location_id": "USGS-342213103181901", "usgs_name": "FTA 4 FORMER FIRE TRAINING", "short": "T3-LB", "coord_source": "Sample_and_Site_Metadata.csv (exact, NAD83)", "well_depth_ft": 12.0, "screen_top_ft": null, "screen_bottom_ft": null, "installed": "2022-04-05", "casing": null, "unit": "ng/L", "n_samples": 1, "first": "2022-10-12", "last": "2022-10-12", "n_pfas_detected": 1, "sum_pfas_max_sample": 225.0, "PFOS_max": null, "PFOA_max": null, "PFHxS_max": null, "PFBS_max": null, "PFHxA_max": null, "PFNA_max": null}}, {"type": "Feature", "geometry": {"type": "Point", "coordinates": [-103.3053333, 34.3702722]}, "properties": {"study_id": "CANNON_AFB", "site_type": "Lysimeter", "location_id": "USGS-342213103181901", "usgs_name": "FTA 4 FORMER FIRE TRAINING", "short": "T3-LA", "coord_source": "Sample_and_Site_Metadata.csv (exact, NAD83)", "well_depth_ft": 5.0, "screen_top_ft": null, "screen_bottom_ft": null, "installed": "2022-04-06", "casing": null, "unit": "ng/L", "n_samples": 1, "first": "2022-10-12", "last": "2022-10-12", "n_pfas_detected": 0, "sum_pfas_max_sample": null, "PFOS_max": null, "PFOA_max": null, "PFHxS_max": null, "PFBS_max": null, "PFHxA_max": null, "PFNA_max": null}}, {"type": "Feature", "geometry": {"type": "Point", "coordinates": [-103.3004333, 34.38630556]}, "properties": {"study_id": "CANNON_AFB", "site_type": "Lysimeter", "location_id": "USGS-342311103180201", "usgs_name": "NORTH PLAYA LAKE OUTFALL", "short": "T5-LB", "coord_source": "Sample_and_Site_Metadata.csv (exact, NAD83)", "well_depth_ft": 11.5, "screen_top_ft": null, "screen_bottom_ft": null, "installed": "2022-04-05", "casing": null, "unit": "ng/L", "n_samples": 1, "first": "2022-10-12", "last": "2022-10-12", "n_pfas_detected": 0, "sum_pfas_max_sample": null, "PFOS_max": null, "PFOA_max": null, "PFHxS_max": null, "PFBS_max": null, "PFHxA_max": null, "PFNA_max": null}}, {"type": "Feature", "geometry": {"type": "Point", "coordinates": [-103.2987544, 34.38567147]}, "properties": {"study_id": "CANNON_AFB", "site_type": "Playa lake sediment", "location_id": "NOT LISTED", "usgs_name": "NOT LISTED", "short": "SD12", "coord_source": "Sample_and_Site_Metadata.csv (exact, WGS84)", "well_depth_ft": 0.0, "screen_top_ft": null, "screen_bottom_ft": null, "installed": null, "casing": null, "unit": "ng/g", "n_samples": 3, "first": "2023-11-22", "last": "2023-11-22", "n_pfas_detected": 9, "sum_pfas_max_sample": 537.82, "PFOS_max": 464.47, "PFOA_max": null, "PFHxS_max": 4.97, "PFBS_max": null, "PFHxA_max": 1.08, "PFNA_max": null}}, {"type": "Feature", "geometry": {"type": "Point", "coordinates": [-103.2979217, 34.3857311]}, "properties": {"study_id": "CANNON_AFB", "site_type": "Playa lake sediment", "location_id": "NOT LISTED", "usgs_name": "NOT LISTED", "short": "SD09", "coord_source": "Sample_and_Site_Metadata.csv (exact, WGS84)", "well_depth_ft": 0.0, "screen_top_ft": null, "screen_bottom_ft": null, "installed": null, "casing": null, "unit": "ng/g", "n_samples": 4, "first": "2023-11-21", "last": "2023-11-21", "n_pfas_detected": 12, "sum_pfas_max_sample": 372.78, "PFOS_max": 318.12, "PFOA_max": null, "PFHxS_max": 4.44, "PFBS_max": null, "PFHxA_max": 1.35, "PFNA_max": 1.53}}, {"type": "Feature", "geometry": {"type": "Point", "coordinates": [-103.2980272, 34.386499]}, "properties": {"study_id": "CANNON_AFB", "site_type": "Playa lake sediment", "location_id": "NOT LISTED", "usgs_name": "NOT LISTED", "short": "SD05", "coord_source": "Sample_and_Site_Metadata.csv (exact, WGS84)", "well_depth_ft": 0.5, "screen_top_ft": null, "screen_bottom_ft": null, "installed": null, "casing": null, "unit": "ng/g", "n_samples": 2, "first": "2023-11-21", "last": "2023-11-21", "n_pfas_detected": 17, "sum_pfas_max_sample": 325.54, "PFOS_max": 260.33, "PFOA_max": 5.78, "PFHxS_max": 5.48, "PFBS_max": 2.31, "PFHxA_max": 2.87, "PFNA_max": 3.54}}, {"type": "Feature", "geometry": {"type": "Point", "coordinates": [-103.2971853, 34.38605983]}, "properties": {"study_id": "CANNON_AFB", "site_type": "Playa lake sediment", "location_id": "NOT LISTED", "usgs_name": "NOT LISTED", "short": "SD06", "coord_source": "Sample_and_Site_Metadata.csv (exact, WGS84)", "well_depth_ft": 0.0, "screen_top_ft": null, "screen_bottom_ft": null, "installed": null, "casing": null, "unit": "ng/g", "n_samples": 2, "first": "2023-11-21", "last": "2023-11-21", "n_pfas_detected": 14, "sum_pfas_max_sample": 251.77, "PFOS_max": 200.87, "PFOA_max": 0.66, "PFHxS_max": 1.79, "PFBS_max": null, "PFHxA_max": 0.85, "PFNA_max": 2.85}}, {"type": "Feature", "geometry": {"type": "Point", "coordinates": [-103.2988962, 34.38685217]}, "properties": {"study_id": "CANNON_AFB", "site_type": "Playa lake sediment", "location_id": "NOT LISTED", "usgs_name": "NOT LISTED", "short": "SD04", "coord_source": "Sample_and_Site_Metadata.csv (exact, WGS84)", "well_depth_ft": 0.0, "screen_top_ft": null, "screen_bottom_ft": null, "installed": null, "casing": null, "unit": "ng/g", "n_samples": 3, "first": "2023-11-21", "last": "2023-11-21", "n_pfas_detected": 17, "sum_pfas_max_sample": 145.92, "PFOS_max": 94.71, "PFOA_max": 4.09, "PFHxS_max": 8.41, "PFBS_max": 1.95, "PFHxA_max": 0.65, "PFNA_max": 4.87}}, {"type": "Feature", "geometry": {"type": "Point", "coordinates": [-103.298777, 34.38623767]}, "properties": {"study_id": "CANNON_AFB", "site_type": "Playa lake sediment", "location_id": "NOT LISTED", "usgs_name": "NOT LISTED", "short": "SD08", "coord_source": "Sample_and_Site_Metadata.csv (exact, WGS84)", "well_depth_ft": 0.5, "screen_top_ft": null, "screen_bottom_ft": null, "installed": null, "casing": null, "unit": "ng/g", "n_samples": 1, "first": "2023-11-21", "last": "2023-11-21", "n_pfas_detected": 7, "sum_pfas_max_sample": 106.31, "PFOS_max": 80.11, "PFOA_max": null, "PFHxS_max": 2.67, "PFBS_max": 0.96, "PFHxA_max": null, "PFNA_max": null}}, {"type": "Feature", "geometry": {"type": "Point", "coordinates": [-103.298332, 34.387479]}, "properties": {"study_id": "CANNON_AFB", "site_type": "Playa lake sediment", "location_id": "NOT LISTED", "usgs_name": "NOT LISTED", "short": "SD01", "coord_source": "Sample_and_Site_Metadata.csv (exact, WGS84)", "well_depth_ft": 0.0, "screen_top_ft": null, "screen_bottom_ft": null, "installed": null, "casing": null, "unit": "ng/g", "n_samples": 2, "first": "2023-11-21", "last": "2023-11-21", "n_pfas_detected": 4, "sum_pfas_max_sample": 53.13, "PFOS_max": 50.49, "PFOA_max": null, "PFHxS_max": null, "PFBS_max": null, "PFHxA_max": null, "PFNA_max": null}}, {"type": "Feature", "geometry": {"type": "Point", "coordinates": [-103.2999417, 34.38613867]}, "properties": {"study_id": "CANNON_AFB", "site_type": "Playa lake sediment", "location_id": "NOT LISTED", "usgs_name": "NOT LISTED", "short": "SD10", "coord_source": "Sample_and_Site_Metadata.csv (exact, WGS84)", "well_depth_ft": 0.75, "screen_top_ft": 0.5, "screen_bottom_ft": 1.0, "installed": null, "casing": null, "unit": "ng/g", "n_samples": 1, "first": "2023-11-22", "last": "2023-11-22", "n_pfas_detected": 8, "sum_pfas_max_sample": 35.65, "PFOS_max": 11.25, "PFOA_max": null, "PFHxS_max": 3.47, "PFBS_max": null, "PFHxA_max": 0.77, "PFNA_max": null}}, {"type": "Feature", "geometry": {"type": "Point", "coordinates": [-103.2975697, 34.3873015]}, "properties": {"study_id": "CANNON_AFB", "site_type": "Playa lake sediment", "location_id": "NOT LISTED", "usgs_name": "NOT LISTED", "short": "SD02", "coord_source": "Sample_and_Site_Metadata.csv (exact, WGS84)", "well_depth_ft": 1.0, "screen_top_ft": null, "screen_bottom_ft": null, "installed": null, "casing": null, "unit": "ng/g", "n_samples": 1, "first": "2023-11-21", "last": "2023-11-21", "n_pfas_detected": 2, "sum_pfas_max_sample": 18.07, "PFOS_max": 17.14, "PFOA_max": null, "PFHxS_max": null, "PFBS_max": null, "PFHxA_max": null, "PFNA_max": null}}, {"type": "Feature", "geometry": {"type": "Point", "coordinates": [-103.3088861, 34.37303889]}, "properties": {"study_id": "CANNON_AFB", "site_type": "Soil Core", "location_id": "USGS-342223103183201", "usgs_name": "ACTIVE FIRE TRAINING AREA", "short": "T04", "coord_source": "Sample_and_Site_Metadata.csv (exact, NAD83)", "well_depth_ft": 0.5, "screen_top_ft": 0.0, "screen_bottom_ft": 2.0, "installed": null, "casing": null, "unit": "ng/g", "n_samples": 4, "first": "2021-09-16", "last": "2021-09-16", "n_pfas_detected": 28, "sum_pfas_max_sample": 8202.13, "PFOS_max": 2748.8, "PFOA_max": 109.86, "PFHxS_max": 584.31, "PFBS_max": 83.01, "PFHxA_max": 469.82, "PFNA_max": 11.36}}, {"type": "Feature", "geometry": {"type": "Point", "coordinates": [-103.3053333, 34.3702722]}, "properties": {"study_id": "CANNON_AFB", "site_type": "Soil Core", "location_id": "USGS-342213103181901", "usgs_name": "FTA 4 FORMER FIRE TRAINING", "short": "T03", "coord_source": "Sample_and_Site_Metadata.csv (exact, NAD83)", "well_depth_ft": 0.5, "screen_top_ft": 0.0, "screen_bottom_ft": 2.0, "installed": null, "casing": null, "unit": "ng/g", "n_samples": 4, "first": "2021-09-16", "last": "2021-09-16", "n_pfas_detected": 14, "sum_pfas_max_sample": 2778.26, "PFOS_max": 92.74, "PFOA_max": 20.14, "PFHxS_max": 201.62, "PFBS_max": 361.48, "PFHxA_max": 772.41, "PFNA_max": 0.91}}, {"type": "Feature", "geometry": {"type": "Point", "coordinates": [-103.3272917, 34.37541389]}, "properties": {"study_id": "CANNON_AFB", "site_type": "Soil Core", "location_id": "USGS-342231103193801", "usgs_name": "SOUTH PLAYA LAKE OUTFALL", "short": "T02", "coord_source": "Sample_and_Site_Metadata.csv (exact, NAD83)", "well_depth_ft": 0.5, "screen_top_ft": 0.0, "screen_bottom_ft": 2.0, "installed": null, "casing": null, "unit": "ng/g", "n_samples": 4, "first": "2021-09-16", "last": "2021-09-16", "n_pfas_detected": 28, "sum_pfas_max_sample": 500.4, "PFOS_max": 52.0, "PFOA_max": 10.96, "PFHxS_max": 18.32, "PFBS_max": 9.26, "PFHxA_max": 9.87, "PFNA_max": 8.43}}, {"type": "Feature", "geometry": {"type": "Point", "coordinates": [-103.3263611, 34.40175278]}, "properties": {"study_id": "CANNON_AFB", "site_type": "Soil Core", "location_id": "USGS-342406103193501", "usgs_name": "GOLF COURSE", "short": "T06", "coord_source": "Sample_and_Site_Metadata.csv (exact, NAD83)", "well_depth_ft": 0.5, "screen_top_ft": 0.0, "screen_bottom_ft": 2.0, "installed": null, "casing": null, "unit": "ng/g", "n_samples": 6, "first": "2021-09-16", "last": "2021-09-16", "n_pfas_detected": 28, "sum_pfas_max_sample": 264.98, "PFOS_max": 10.04, "PFOA_max": 11.64, "PFHxS_max": 9.73, "PFBS_max": 9.36, "PFHxA_max": 8.81, "PFNA_max": 11.53}}, {"type": "Feature", "geometry": {"type": "Point", "coordinates": [-103.3038806, 34.3873972]}, "properties": {"study_id": "CANNON_AFB", "site_type": "Soil Core", "location_id": "USGS-342315103181401", "usgs_name": "FORMER SEWAGE LAGOON", "short": "T07", "coord_source": "Sample_and_Site_Metadata.csv (exact, NAD83)", "well_depth_ft": 0.5, "screen_top_ft": 0.0, "screen_bottom_ft": 2.0, "installed": null, "casing": null, "unit": "ng/g", "n_samples": 6, "first": "2021-09-16", "last": "2021-09-16", "n_pfas_detected": 13, "sum_pfas_max_sample": 95.62, "PFOS_max": 29.42, "PFOA_max": 2.79, "PFHxS_max": 2.42, "PFBS_max": null, "PFHxA_max": 5.96, "PFNA_max": null}}, {"type": "Feature", "geometry": {"type": "Point", "coordinates": [-103.3004333, 34.38630556]}, "properties": {"study_id": "CANNON_AFB", "site_type": "Soil Core", "location_id": "USGS-342311103180201", "usgs_name": "NORTH PLAYA LAKE OUTFALL", "short": "T05", "coord_source": "Sample_and_Site_Metadata.csv (exact, NAD83)", "well_depth_ft": 1.5, "screen_top_ft": 0.0, "screen_bottom_ft": 2.0, "installed": null, "casing": null, "unit": "ng/g", "n_samples": 5, "first": "2021-09-16", "last": "2021-09-16", "n_pfas_detected": 6, "sum_pfas_max_sample": 93.74, "PFOS_max": 90.69, "PFOA_max": null, "PFHxS_max": 3.56, "PFBS_max": null, "PFHxA_max": null, "PFNA_max": 2.18}}, {"type": "Feature", "geometry": {"type": "Point", "coordinates": [-103.3474, 34.37345]}, "properties": {"study_id": "CANNON_AFB", "site_type": "Soil Core", "location_id": "USGS-342224103205101", "usgs_name": "WEST BACKGROUND SITE", "short": "T01", "coord_source": "Sample_and_Site_Metadata.csv (exact, NAD83)", "well_depth_ft": 0.5, "screen_top_ft": 0.0, "screen_bottom_ft": 2.0, "installed": null, "casing": null, "unit": "ng/g", "n_samples": 4, "first": "2021-09-16", "last": "2021-09-16", "n_pfas_detected": 1, "sum_pfas_max_sample": 0.55, "PFOS_max": null, "PFOA_max": null, "PFHxS_max": null, "PFBS_max": null, "PFHxA_max": null, "PFNA_max": null}}]}