{"type": "FeatureCollection", "name": "dec_lake_monitoring_reports_clip.geojson", "crs": {"type": "name", "properties": {"name": "EPSG:4326"}}, "features": [{"type": "Feature", "properties": {"OBJECTID": 4265, "LAKE_HISTORY_ID": "0601BEA0359", "SITE_NAME": "Bear Swamp Pond", "COUNTY": "Otsego", "LINK": "https://extapps.dec.ny.gov/data/IF/CSLAP/0601BEA0359/"}, "geometry": {"type": "Point", "coordinates": [-74.6803987946531, 42.6884086097872]}}, {"type": "Feature", "properties": {"OBJECTID": 4274, "LAKE_HISTORY_ID": "0601FLY0335", "SITE_NAME": "Fly Pond", "COUNTY": "Schoharie", "LINK": "https://extapps.dec.ny.gov/data/IF/CSLAP/0601FLY0335/"}, "geometry": {"type": "Point", "coordinates": [-74.6080037646192, 42.5927095951185]}}, {"type": "Feature", "properties": {"OBJECTID": 4289, "LAKE_HISTORY_ID": "0601TIT0320", "SITE_NAME": "Titus Lake", "COUNTY": "Delaware", "LINK": "https://extapps.dec.ny.gov/data/IF/CSLAP/0601TIT0320/"}, "geometry": {"type": "Point", "coordinates": [-74.7128007918368, 42.5017095741266]}}, {"type": "Feature", "properties": {"OBJECTID": 4293, "LAKE_HISTORY_ID": "0601UWB5827", "SITE_NAME": "Unnamed Water", "COUNTY": "Otsego", "LINK": "https://extapps.dec.ny.gov/data/IF/CSLAP/0601UWB5827/"}, "geometry": {"type": "Point", "coordinates": [-74.6949017953854, 42.635308598994]}}, {"type": "Feature", "properties": {"OBJECTID": 4675, "LAKE_HISTORY_ID": "1101TRO0459", "SITE_NAME": "Troy Reservoir", "COUNTY": "Rensselaer", "LINK": "https://extapps.dec.ny.gov/data/IF/CSLAP/1101TRO0459/"}, "geometry": {"type": "Point", "coordinates": [-73.6341034585947, 42.7646076625056]}}, {"type": "Feature", "properties": {"OBJECTID": 4774, "LAKE_HISTORY_ID": "1201ANN0496", "SITE_NAME": "Ann Lee Pond", "COUNTY": "Albany", "LINK": "https://extapps.dec.ny.gov/data/IF/CSLAP/1201ANN0496/"}, "geometry": {"type": "Point", "coordinates": [-73.8130045154419, 42.7379086508778]}}, {"type": "Feature", "properties": {"OBJECTID": 4775, "LAKE_HISTORY_ID": "1201BOW0589C", "SITE_NAME": "Bowmaker Pond", "COUNTY": "Schoharie", "LINK": "https://extapps.dec.ny.gov/data/IF/CSLAP/1201BOW0589C/"}, "geometry": {"type": "Point", "coordinates": [-74.6249027824052, 42.7822086287785]}}, {"type": "Feature", "properties": {"OBJECTID": 4778, "LAKE_HISTORY_ID": "1201COL0519", "SITE_NAME": "Collins Lake", "COUNTY": "Schenectady", "LINK": "https://extapps.dec.ny.gov/data/IF/CSLAP/1201COL0519/"}, "geometry": {"type": "Point", "coordinates": [-73.9537975668222, 42.8258106620262]}}, {"type": "Feature", "properties": {"OBJECTID": 4786, "LAKE_HISTORY_ID": "1201FEA0571", "SITE_NAME": "Featherstonhaugh Lake", "COUNTY": "Schenectady", "LINK": "https://extapps.dec.ny.gov/data/IF/CSLAP/1201FEA0571/"}, "geometry": {"type": "Point", "coordinates": [-74.11630361995, 42.8140076543287]}}, {"type": "Feature", "properties": {"OBJECTID": 4796, "LAKE_HISTORY_ID": "1201MAR0570", "SITE_NAME": "Mariaville Lake", "COUNTY": "Schenectady", "LINK": "https://extapps.dec.ny.gov/data/IF/CSLAP/1201MAR0570/"}, "geometry": {"type": "Point", "coordinates": [-74.1119016192567, 42.8337066576949]}}, {"type": "Feature", "properties": {"OBJECTID": 4804, "LAKE_HISTORY_ID": "1201SHAXXXX", "SITE_NAME": "Sharon Springs Water Treatment Plant", "COUNTY": "Schoharie", "LINK": "https://extapps.dec.ny.gov/data/IF/CSLAP/1201SHAXXXX/"}, "geometry": {"type": "Point", "coordinates": [-74.6249217830778, 42.7821886296358]}}, {"type": "Feature", "properties": {"OBJECTID": 4808, "LAKE_HISTORY_ID": "1201STO0503A", "SITE_NAME": "Stony Reservoir", "COUNTY": "Saratoga", "LINK": "https://extapps.dec.ny.gov/data/IF/CSLAP/1201STO0503A/"}, "geometry": {"type": "Point", "coordinates": [-73.8181015219285, 42.8111086648377]}}, {"type": "Feature", "properties": {"OBJECTID": 4810, "LAKE_HISTORY_ID": "1201SUG0472", "SITE_NAME": "Sugarloaf Pond", "COUNTY": "Saratoga", "LINK": "https://extapps.dec.ny.gov/data/IF/CSLAP/1201SUG0472/"}, "geometry": {"type": "Point", "coordinates": [-73.6978014810278, 42.788510664818]}}, {"type": "Feature", "properties": {"OBJECTID": 4811, "LAKE_HISTORY_ID": "1201UWB0503", "SITE_NAME": "Murphy Pond", "COUNTY": "Saratoga", "LINK": "https://extapps.dec.ny.gov/data/IF/CSLAP/1201UWB0503/"}, "geometry": {"type": "Point", "coordinates": [-73.8087025214889, 42.8459096718774]}}, {"type": "Feature", "properties": {"OBJECTID": 4812, "LAKE_HISTORY_ID": "1201UWB0525", "SITE_NAME": "Iroquois Lake", "COUNTY": "Schenectady", "LINK": "https://extapps.dec.ny.gov/data/IF/CSLAP/1201UWB0525/"}, "geometry": {"type": "Point", "coordinates": [-73.9123015515994, 42.800007658853]}}, {"type": "Feature", "properties": {"OBJECTID": 4815, "LAKE_HISTORY_ID": "1201UWB5549", "SITE_NAME": "Unnamed Water", "COUNTY": "Albany", "LINK": "https://extapps.dec.ny.gov/data/IF/CSLAP/1201UWB5549/"}, "geometry": {"type": "Point", "coordinates": [-73.697503478921, 42.7559096587483]}}, {"type": "Feature", "properties": {"OBJECTID": 4820, "LAKE_HISTORY_ID": "1202BEA0596", "SITE_NAME": "Bear Gulch Pond", "COUNTY": "Schoharie", "LINK": "https://extapps.dec.ny.gov/data/IF/CSLAP/1202BEA0596/"}, "geometry": {"type": "Point", "coordinates": [-74.59480475931, 42.5919085946947]}}, {"type": "Feature", "properties": {"OBJECTID": 4821, "LAKE_HISTORY_ID": "1202BLE0630A", "SITE_NAME": "Blenheim Gilboa Reservoir", "COUNTY": "Schoharie", "LINK": "https://extapps.dec.ny.gov/data/IF/CSLAP/1202BLE0630A/"}, "geometry": {"type": "Point", "coordinates": [-74.454202704573, 42.4431085724473]}}, {"type": "Feature", "properties": {"OBJECTID": 4822, "LAKE_HISTORY_ID": "1202COB0583", "SITE_NAME": "Cobleskill Reservoir", "COUNTY": "Schoharie", "LINK": "https://extapps.dec.ny.gov/data/IF/CSLAP/1202COB0583/"}, "geometry": {"type": "Point", "coordinates": [-74.4436047154435, 42.6643076144709]}}, {"type": "Feature", "properties": {"OBJECTID": 4823, "LAKE_HISTORY_ID": "1202COL0649", "SITE_NAME": "Colgate Lake", "COUNTY": "Greene", "LINK": "https://extapps.dec.ny.gov/data/IF/CSLAP/1202COL0649/"}, "geometry": {"type": "Point", "coordinates": [-74.1197985816145, 42.2355085457112]}}, {"type": "Feature", "properties": {"OBJECTID": 4824, "LAKE_HISTORY_ID": "1202ECH0605", "SITE_NAME": "Echo Pond", "COUNTY": "Schoharie", "LINK": "https://extapps.dec.ny.gov/data/IF/CSLAP/1202ECH0605/"}, "geometry": {"type": "Point", "coordinates": [-74.1939026375831, 42.7082066317812]}}, {"type": "Feature", "properties": {"OBJECTID": 4825, "LAKE_HISTORY_ID": "1202ENG0589", "SITE_NAME": "Engleville Pond", "COUNTY": "Schoharie", "LINK": "https://extapps.dec.ny.gov/data/IF/CSLAP/1202ENG0589/"}, "geometry": {"type": "Point", "coordinates": [-74.6522997893394, 42.7570086231485]}}, {"type": "Feature", "properties": {"OBJECTID": 4826, "LAKE_HISTORY_ID": "1202FAW0605B", "SITE_NAME": "Fawn Lake", "COUNTY": "Albany", "LINK": "https://extapps.dec.ny.gov/data/IF/CSLAP/1202FAW0605B/"}, "geometry": {"type": "Point", "coordinates": [-74.1679016195554, 42.5622076055156]}}, {"type": "Feature", "properties": {"OBJECTID": 4827, "LAKE_HISTORY_ID": "1202HEL0647A", "SITE_NAME": "Lake Heloise", "COUNTY": "Greene", "LINK": "https://extapps.dec.ny.gov/data/IF/CSLAP/1202HEL0647A/"}, "geometry": {"type": "Point", "coordinates": [-74.2141056190434, 42.3433085631944]}}, {"type": "Feature", "properties": {"OBJECTID": 4828, "LAKE_HISTORY_ID": "1202HOL5453", "SITE_NAME": "Holding Pond", "COUNTY": "Schoharie", "LINK": "https://extapps.dec.ny.gov/data/IF/CSLAP/1202HOL5453/"}, "geometry": {"type": "Point", "coordinates": [-74.4462987171836, 42.6665086144452]}}, {"type": "Feature", "properties": {"OBJECTID": 4829, "LAKE_HISTORY_ID": "1202LOO5452", "SITE_NAME": "Looking Glass Pond", "COUNTY": "Schoharie", "LINK": "https://extapps.dec.ny.gov/data/IF/CSLAP/1202LOO5452/"}, "geometry": {"type": "Point", "coordinates": [-74.4929977240876, 42.5500075911305]}}, {"type": "Feature", "properties": {"OBJECTID": 4830, "LAKE_HISTORY_ID": "1202MAL0615A", "SITE_NAME": "Mallet Pond", "COUNTY": "Schoharie", "LINK": "https://extapps.dec.ny.gov/data/IF/CSLAP/1202MAL0615A/"}, "geometry": {"type": "Point", "coordinates": [-74.5206007349492, 42.5869075966701]}}, {"type": "Feature", "properties": {"OBJECTID": 4831, "LAKE_HISTORY_ID": "1202MAY0643", "SITE_NAME": "Mayham Pond", "COUNTY": "Schoharie", "LINK": "https://extapps.dec.ny.gov/data/IF/CSLAP/1202MAY0643/"}, "geometry": {"type": "Point", "coordinates": [-74.5617007371427, 42.4148075632604]}}, {"type": "Feature", "properties": {"OBJECTID": 4832, "LAKE_HISTORY_ID": "1202OND0608", "SITE_NAME": "Onderdonk Lake", "COUNTY": "Albany", "LINK": "https://extapps.dec.ny.gov/data/IF/CSLAP/1202OND0608/"}, "geometry": {"type": "Point", "coordinates": [-74.0849015906567, 42.5442096052956]}}, {"type": "Feature", "properties": {"OBJECTID": 4833, "LAKE_HISTORY_ID": "1202RIP0656A", "SITE_NAME": "Lake Rip Van Winkle", "COUNTY": "Greene", "LINK": "https://extapps.dec.ny.gov/data/IF/CSLAP/1202RIP0656A/"}, "geometry": {"type": "Point", "coordinates": [-74.1276035811843, 42.1916095370357]}}, {"type": "Feature", "properties": {"OBJECTID": 4834, "LAKE_HISTORY_ID": "1202ROS0616", "SITE_NAME": "Rossman Pond", "COUNTY": "Schoharie", "LINK": "https://extapps.dec.ny.gov/data/IF/CSLAP/1202ROS0616/"}, "geometry": {"type": "Point", "coordinates": [-74.5310987397728, 42.5965085978911]}}, {"type": "Feature", "properties": {"OBJECTID": 4835, "LAKE_HISTORY_ID": "1202SIL0647B", "SITE_NAME": "Silver Lake", "COUNTY": "Greene", "LINK": "https://extapps.dec.ny.gov/data/IF/CSLAP/1202SIL0647B/"}, "geometry": {"type": "Point", "coordinates": [-74.1672986032527, 42.3258105613076]}}, {"type": "Feature", "properties": {"OBJECTID": 4836, "LAKE_HISTORY_ID": "1202SUM0629", "SITE_NAME": "Summit Lake", "COUNTY": "Schoharie", "LINK": "https://extapps.dec.ny.gov/data/IF/CSLAP/1202SUM0629/"}, "geometry": {"type": "Point", "coordinates": [-74.5814987547924, 42.5832065938388]}}, {"type": "Feature", "properties": {"OBJECTID": 4837, "LAKE_HISTORY_ID": "1202TAN0655D", "SITE_NAME": "Tannersville Reservoir", "COUNTY": "Greene", "LINK": "https://extapps.dec.ny.gov/data/IF/CSLAP/1202TAN0655D/"}, "geometry": {"type": "Point", "coordinates": [-74.1596995934837, 42.2113085402922]}}, {"type": "Feature", "properties": {"OBJECTID": 4838, "LAKE_HISTORY_ID": "1202TUB0605C", "SITE_NAME": "Tubbs Pond", "COUNTY": "Albany", "LINK": "https://extapps.dec.ny.gov/data/IF/CSLAP/1202TUB0605C/"}, "geometry": {"type": "Point", "coordinates": [-74.1801006236906, 42.5725066070262]}}, {"type": "Feature", "properties": {"OBJECTID": 4839, "LAKE_HISTORY_ID": "1202UBL0630B", "SITE_NAME": "Upper Blenheim Gilboa Res", "COUNTY": "Schoharie", "LINK": "https://extapps.dec.ny.gov/data/IF/CSLAP/1202UBL0630B/"}, "geometry": {"type": "Point", "coordinates": [-74.4276976951445, 42.4436085732798]}}, {"type": "Feature", "properties": {"OBJECTID": 4840, "LAKE_HISTORY_ID": "1202UWB0579", "SITE_NAME": "Central Bridge Lower Reservoir", "COUNTY": "Schoharie", "LINK": "https://extapps.dec.ny.gov/data/IF/CSLAP/1202UWB0579/"}, "geometry": {"type": "Point", "coordinates": [-74.36010169178, 42.7116096263632]}}, {"type": "Feature", "properties": {"OBJECTID": 4841, "LAKE_HISTORY_ID": "1202UWB0579A", "SITE_NAME": "Central Bridge Upper Reservoir", "COUNTY": "Schoharie", "LINK": "https://extapps.dec.ny.gov/data/IF/CSLAP/1202UWB0579A/"}, "geometry": {"type": "Point", "coordinates": [-74.3658006944708, 42.7156076267986]}}, {"type": "Feature", "properties": {"OBJECTID": 4842, "LAKE_HISTORY_ID": "1202UWB0589A", "SITE_NAME": "Lower Engleville Pond", "COUNTY": "Schoharie", "LINK": "https://extapps.dec.ny.gov/data/IF/CSLAP/1202UWB0589A/"}, "geometry": {"type": "Point", "coordinates": [-74.6477987888116, 42.7601096242501]}}, {"type": "Feature", "properties": {"OBJECTID": 4843, "LAKE_HISTORY_ID": "1202UWB0599", "SITE_NAME": "Unnamed Water", "COUNTY": "Schoharie", "LINK": "https://extapps.dec.ny.gov/data/IF/CSLAP/1202UWB0599/"}, "geometry": {"type": "Point", "coordinates": [-74.6177007707211, 42.6504066047072]}}, {"type": "Feature", "properties": {"OBJECTID": 4844, "LAKE_HISTORY_ID": "1202UWB5133", "SITE_NAME": "Unnamed Water", "COUNTY": "Schoharie", "LINK": "https://extapps.dec.ny.gov/data/IF/CSLAP/1202UWB5133/"}, "geometry": {"type": "Point", "coordinates": [-74.4480987169624, 42.6619086139125]}}, {"type": "Feature", "properties": {"OBJECTID": 4845, "LAKE_HISTORY_ID": "1202UWB5180", "SITE_NAME": "Unnamed Water", "COUNTY": "Albany", "LINK": "https://extapps.dec.ny.gov/data/IF/CSLAP/1202UWB5180/"}, "geometry": {"type": "Point", "coordinates": [-74.0465025833687, 42.6230096209115]}}, {"type": "Feature", "properties": {"OBJECTID": 4846, "LAKE_HISTORY_ID": "1202WAR0609", "SITE_NAME": "Warners Lake", "COUNTY": "Albany", "LINK": "https://extapps.dec.ny.gov/data/IF/CSLAP/1202WAR0609/"}, "geometry": {"type": "Point", "coordinates": [-74.0791035941725, 42.6251076208562]}}, {"type": "Feature", "properties": {"OBJECTID": 4847, "LAKE_HISTORY_ID": "1202WHI0605A", "SITE_NAME": "White Birch Pond", "COUNTY": "Albany", "LINK": "https://extapps.dec.ny.gov/data/IF/CSLAP/1202WHI0605A/"}, "geometry": {"type": "Point", "coordinates": [-74.1568996157077, 42.5658086063514]}}, {"type": "Feature", "properties": {"OBJECTID": 4848, "LAKE_HISTORY_ID": "1202WOO0605D", "SITE_NAME": "Woods Pond", "COUNTY": "Albany", "LINK": "https://extapps.dec.ny.gov/data/IF/CSLAP/1202WOO0605D/"}, "geometry": {"type": "Point", "coordinates": [-74.1828016247068, 42.5673076053878]}}, {"type": "Feature", "properties": {"OBJECTID": 4858, "LAKE_HISTORY_ID": "1301ALC0185", "SITE_NAME": "Alcove Reservoir", "COUNTY": "Albany", "LINK": "https://extapps.dec.ny.gov/data/IF/CSLAP/1301ALC0185/"}, "geometry": {"type": "Point", "coordinates": [-73.9392505395345, 42.4778365981519]}}, {"type": "Feature", "properties": {"OBJECTID": 4868, "LAKE_HISTORY_ID": "1301BUC0303", "SITE_NAME": "Buckingham Lake", "COUNTY": "Albany", "LINK": "https://extapps.dec.ny.gov/data/IF/CSLAP/1301BUC0303/"}, "geometry": {"type": "Point", "coordinates": [-73.8070995081383, 42.6635106375677]}}, {"type": "Feature", "properties": {"OBJECTID": 4869, "LAKE_HISTORY_ID": "1301BUR0366", "SITE_NAME": "Burdens Pond", "COUNTY": "Rensselaer", "LINK": "https://extapps.dec.ny.gov/data/IF/CSLAP/1301BUR0366/"}, "geometry": {"type": "Point", "coordinates": [-73.6848994717102, 42.7055106497163]}}, {"type": "Feature", "properties": {"OBJECTID": 4870, "LAKE_HISTORY_ID": "1301BUR0386A", "SITE_NAME": "Burden Lake", "COUNTY": "Rensselaer", "LINK": "https://extapps.dec.ny.gov/data/IF/CSLAP/1301BUR0386A/"}, "geometry": {"type": "Point", "coordinates": [-73.5689214278832, 42.6141586371022]}}, {"type": "Feature", "properties": {"OBJECTID": 4871, "LAKE_HISTORY_ID": "1301BUR0386B", "SITE_NAME": "Burden Lake", "COUNTY": "Rensselaer", "LINK": "https://extapps.dec.ny.gov/data/IF/CSLAP/1301BUR0386B/"}, "geometry": {"type": "Point", "coordinates": [-73.5692214269717, 42.6047486349508]}}, {"type": "Feature", "properties": {"OBJECTID": 4872, "LAKE_HISTORY_ID": "1301BUR0386C", "SITE_NAME": "Burden Third Lake", "COUNTY": "Rensselaer", "LINK": "https://extapps.dec.ny.gov/data/IF/CSLAP/1301BUR0386C/"}, "geometry": {"type": "Point", "coordinates": [-73.5614024245968, 42.5947086340701]}}, {"type": "Feature", "properties": {"OBJECTID": 4880, "LAKE_HISTORY_ID": "1301COX0152B", "SITE_NAME": "Coxsackie Reservoir", "COUNTY": "Greene", "LINK": "https://extapps.dec.ny.gov/data/IF/CSLAP/1301COX0152B/"}, "geometry": {"type": "Point", "coordinates": [-73.8647015077597, 42.3713085806981]}}, {"type": "Feature", "properties": {"OBJECTID": 4881, "LAKE_HISTORY_ID": "1301COX6780", "SITE_NAME": "Coxsackie Reservoir", "COUNTY": "Greene", "LINK": "https://extapps.dec.ny.gov/data/IF/CSLAP/1301COX6780/"}, "geometry": {"type": "Point", "coordinates": [-73.8778015149594, 42.4076085871645]}}, {"type": "Feature", "properties": {"OBJECTID": 4884, "LAKE_HISTORY_ID": "1301CRY0391", "SITE_NAME": "Crystal Lake", "COUNTY": "Rensselaer", "LINK": "https://extapps.dec.ny.gov/data/IF/CSLAP/1301CRY0391/"}, "geometry": {"type": "Point", "coordinates": [-73.5552994246317, 42.6400076424052]}}, {"type": "Feature", "properties": {"OBJECTID": 4893, "LAKE_HISTORY_ID": "1301HAM0297", "SITE_NAME": "Hampton Manor Pond", "COUNTY": "Rensselaer", "LINK": "https://extapps.dec.ny.gov/data/IF/CSLAP/1301HAM0297/"}, "geometry": {"type": "Point", "coordinates": [-73.726403479279, 42.6170096319271]}}, {"type": "Feature", "properties": {"OBJECTID": 4895, "LAKE_HISTORY_ID": "1301HEL0207A", "SITE_NAME": "Helderberg Lake", "COUNTY": "Albany", "LINK": "https://extapps.dec.ny.gov/data/IF/CSLAP/1301HEL0207A/"}, "geometry": {"type": "Point", "coordinates": [-74.0148025723023, 42.5996106179722]}}, {"type": "Feature", "properties": {"OBJECTID": 4898, "LAKE_HISTORY_ID": "1301LAW0207", "SITE_NAME": "Lawson Lake", "COUNTY": "Albany", "LINK": "https://extapps.dec.ny.gov/data/IF/CSLAP/1301LAW0207/"}, "geometry": {"type": "Point", "coordinates": [-73.9599015495119, 42.539109608761]}}, {"type": "Feature", "properties": {"OBJECTID": 4899, "LAKE_HISTORY_ID": "1301LIT0355", "SITE_NAME": "Littles Lake", "COUNTY": "Albany", "LINK": "https://extapps.dec.ny.gov/data/IF/CSLAP/1301LIT0355/"}, "geometry": {"type": "Point", "coordinates": [-73.741204489415, 42.6974076465758]}}, {"type": "Feature", "properties": {"OBJECTID": 4911, "LAKE_HISTORY_ID": "1301OAK0002", "SITE_NAME": "Oakdale Lake", "COUNTY": "Columbia", "LINK": "https://extapps.dec.ny.gov/data/IF/CSLAP/1301OAK0002/"}, "geometry": {"type": "Point", "coordinates": [-73.778298472496, 42.2514085613533]}}, {"type": "Feature", "properties": {"OBJECTID": 4912, "LAKE_HISTORY_ID": "1301OLA0963", "SITE_NAME": "Olana Pond", "COUNTY": "Columbia", "LINK": "https://extapps.dec.ny.gov/data/IF/CSLAP/1301OLA0963/"}, "geometry": {"type": "Point", "coordinates": [-73.8313994862008, 42.2118085519278]}}, {"type": "Feature", "properties": {"OBJECTID": 4913, "LAKE_HISTORY_ID": "1301OLAXXX1", "SITE_NAME": "Olana Route 9 Pond 1", "COUNTY": "Columbia", "LINK": "https://extapps.dec.ny.gov/data/IF/CSLAP/1301OLAXXX1/"}, "geometry": {"type": "Point", "coordinates": [-73.8362514874091, 42.2081195513608]}}, {"type": "Feature", "properties": {"OBJECTID": 4914, "LAKE_HISTORY_ID": "1301OLAXXX2", "SITE_NAME": "Olana Route 9 Pond 2", "COUNTY": "Columbia", "LINK": "https://extapps.dec.ny.gov/data/IF/CSLAP/1301OLAXXX2/"}, "geometry": {"type": "Point", "coordinates": [-73.8368254886386, 42.2074985506595]}}, {"type": "Feature", "properties": {"OBJECTID": 4915, "LAKE_HISTORY_ID": "1301OLAXXX3", "SITE_NAME": "Olana Route 9 Pond 3", "COUNTY": "Columbia", "LINK": "https://extapps.dec.ny.gov/data/IF/CSLAP/1301OLAXXX3/"}, "geometry": {"type": "Point", "coordinates": [-73.8370184877247, 42.2065475507187]}}, {"type": "Feature", "properties": {"OBJECTID": 4924, "LAKE_HISTORY_ID": "1301REI0382", "SITE_NAME": "Reichards Lake", "COUNTY": "Rensselaer", "LINK": "https://extapps.dec.ny.gov/data/IF/CSLAP/1301REI0382/"}, "geometry": {"type": "Point", "coordinates": [-73.5943994385361, 42.6528106437492]}}, {"type": "Feature", "properties": {"OBJECTID": 4925, "LAKE_HISTORY_ID": "1301REN0336", "SITE_NAME": "Rensselaer Lake", "COUNTY": "Albany", "LINK": "https://extapps.dec.ny.gov/data/IF/CSLAP/1301REN0336/"}, "geometry": {"type": "Point", "coordinates": [-73.8380985214894, 42.6987086427739]}}, {"type": "Feature", "properties": {"OBJECTID": 4926, "LAKE_HISTORY_ID": "1301RES0153", "SITE_NAME": "Reservoir", "COUNTY": "Greene", "LINK": "https://extapps.dec.ny.gov/data/IF/CSLAP/1301RES0153/"}, "geometry": {"type": "Point", "coordinates": [-73.8558391560766, 42.3493441328842]}}, {"type": "Feature", "properties": {"OBJECTID": 4934, "LAKE_HISTORY_ID": "1301SLE6666", "SITE_NAME": "Sleepy Hollow Lake", "COUNTY": "Greene", "LINK": "https://extapps.dec.ny.gov/data/IF/CSLAP/1301SLE6666/"}, "geometry": {"type": "Point", "coordinates": [-73.8069014835183, 42.2944075683213]}}, {"type": "Feature", "properties": {"OBJECTID": 4935, "LAKE_HISTORY_ID": "1301SNY0377", "SITE_NAME": "Snyders Lake", "COUNTY": "Rensselaer", "LINK": "https://extapps.dec.ny.gov/data/IF/CSLAP/1301SNY0377/"}, "geometry": {"type": "Point", "coordinates": [-73.6346984529917, 42.6631096435493]}}, {"type": "Feature", "properties": {"OBJECTID": 4949, "LAKE_HISTORY_ID": "1301TIV0309", "SITE_NAME": "Tivoli Lake", "COUNTY": "Albany", "LINK": "https://extapps.dec.ny.gov/data/IF/CSLAP/1301TIV0309/"}, "geometry": {"type": "Point", "coordinates": [-73.7614994939349, 42.6703076406837]}}, {"type": "Feature", "properties": {"OBJECTID": 4956, "LAKE_HISTORY_ID": "1301UWB0354", "SITE_NAME": "Unnamed Water", "COUNTY": "Albany", "LINK": "https://extapps.dec.ny.gov/data/IF/CSLAP/1301UWB0354/"}, "geometry": {"type": "Point", "coordinates": [-73.7344984865422, 42.6933066458195]}}, {"type": "Feature", "properties": {"OBJECTID": 4957, "LAKE_HISTORY_ID": "1301UWB0391B", "SITE_NAME": "Marcy Street Pond", "COUNTY": "Rensselaer", "LINK": "https://extapps.dec.ny.gov/data/IF/CSLAP/1301UWB0391B/"}, "geometry": {"type": "Point", "coordinates": [-73.5602054256755, 42.6338086407191]}}, {"type": "Feature", "properties": {"OBJECTID": 4964, "LAKE_HISTORY_ID": "1301VLY0262A", "SITE_NAME": "Vly Creek Reservoir", "COUNTY": "Albany", "LINK": "https://extapps.dec.ny.gov/data/IF/CSLAP/1301VLY0262A/"}, "geometry": {"type": "Point", "coordinates": [-73.9555985538353, 42.6120086225065]}}, {"type": "Feature", "properties": {"OBJECTID": 4965, "LAKE_HISTORY_ID": "1301VOS0433", "SITE_NAME": "Vosburg Pond", "COUNTY": "Rensselaer", "LINK": "https://extapps.dec.ny.gov/data/IF/CSLAP/1301VOS0433/"}, "geometry": {"type": "Point", "coordinates": [-73.5606014279736, 42.6569066449538]}}, {"type": "Feature", "properties": {"OBJECTID": 4967, "LAKE_HISTORY_ID": "1301WAS0302", "SITE_NAME": "Washington Park Pond", "COUNTY": "Albany", "LINK": "https://extapps.dec.ny.gov/data/IF/CSLAP/1301WAS0302/"}, "geometry": {"type": "Point", "coordinates": [-73.7733014972144, 42.6571096372276]}}, {"type": "Feature", "properties": {"OBJECTID": 5072, "LAKE_HISTORY_ID": "1307COO0839", "SITE_NAME": "Cooper Lake", "COUNTY": "Ulster", "LINK": "https://extapps.dec.ny.gov/data/IF/CSLAP/1307COO0839/"}, "geometry": {"type": "Point", "coordinates": [-74.1789035891191, 42.0612075106977]}}, {"type": "Feature", "properties": {"OBJECTID": 5074, "LAKE_HISTORY_ID": "1307SAU0834", "SITE_NAME": "Saugerties Reservoir", "COUNTY": "Ulster", "LINK": "https://extapps.dec.ny.gov/data/IF/CSLAP/1307SAU0834/"}, "geometry": {"type": "Point", "coordinates": [-74.0178005399546, 42.1102075256262]}}, {"type": "Feature", "properties": {"OBJECTID": 5075, "LAKE_HISTORY_ID": "1308LONXXX1", "SITE_NAME": "Long Pond", "COUNTY": "Columbia", "LINK": "https://extapps.dec.ny.gov/data/IF/CSLAP/1308LONXXX1/"}, "geometry": {"type": "Point", "coordinates": [-73.5911983988885, 42.0691515337404]}}, {"type": "Feature", "properties": {"OBJECTID": 5076, "LAKE_HISTORY_ID": "1308LRH0888", "SITE_NAME": "Lower Rhoda Pond", "COUNTY": "Columbia", "LINK": "https://extapps.dec.ny.gov/data/IF/CSLAP/1308LRH0888/"}, "geometry": {"type": "Point", "coordinates": [-73.594102401519, 42.0794075352249]}}, {"type": "Feature", "properties": {"OBJECTID": 5078, "LAKE_HISTORY_ID": "1308ROB0902", "SITE_NAME": "Robinson Pond", "COUNTY": "Columbia", "LINK": "https://extapps.dec.ny.gov/data/IF/CSLAP/1308ROB0902/"}, "geometry": {"type": "Point", "coordinates": [-73.5552993909926, 42.1181075444531]}}, {"type": "Feature", "properties": {"OBJECTID": 5079, "LAKE_HISTORY_ID": "1308TAG0869", "SITE_NAME": "Lake Taghkanic", "COUNTY": "Columbia", "LINK": "https://extapps.dec.ny.gov/data/IF/CSLAP/1308TAG0869/"}, "geometry": {"type": "Point", "coordinates": [-73.7095044396568, 42.0912105334793]}}, {"type": "Feature", "properties": {"OBJECTID": 5080, "LAKE_HISTORY_ID": "1308TWN0871", "SITE_NAME": "Twin Lakes (North)", "COUNTY": "Columbia", "LINK": "https://extapps.dec.ny.gov/data/IF/CSLAP/1308TWN0871/"}, "geometry": {"type": "Point", "coordinates": [-73.7947024655705, 42.0619095248614]}}, {"type": "Feature", "properties": {"OBJECTID": 5081, "LAKE_HISTORY_ID": "1308TWS0872", "SITE_NAME": "Twin Lakes (South)", "COUNTY": "Columbia", "LINK": "https://extapps.dec.ny.gov/data/IF/CSLAP/1308TWS0872/"}, "geometry": {"type": "Point", "coordinates": [-73.7976014660908, 42.0554095239525]}}, {"type": "Feature", "properties": {"OBJECTID": 5082, "LAKE_HISTORY_ID": "1308URH0889", "SITE_NAME": "Upper Rhoda Pond", "COUNTY": "Columbia", "LINK": "https://extapps.dec.ny.gov/data/IF/CSLAP/1308URH0889/"}, "geometry": {"type": "Point", "coordinates": [-73.5892044006467, 42.0947085385195]}}, {"type": "Feature", "properties": {"OBJECTID": 5086, "LAKE_HISTORY_ID": "1309BAS0950A", "SITE_NAME": "Basic Creek Reservoir", "COUNTY": "Albany", "LINK": "https://extapps.dec.ny.gov/data/IF/CSLAP/1309BAS0950A/"}, "geometry": {"type": "Point", "coordinates": [-74.0139025635029, 42.4812095957362]}}, {"type": "Feature", "properties": {"OBJECTID": 5087, "LAKE_HISTORY_ID": "1309CRY0957", "SITE_NAME": "Crystal Lake", "COUNTY": "Albany", "LINK": "https://extapps.dec.ny.gov/data/IF/CSLAP/1309CRY0957/"}, "geometry": {"type": "Point", "coordinates": [-74.207002628733, 42.5208095963448]}}, {"type": "Feature", "properties": {"OBJECTID": 5088, "LAKE_HISTORY_ID": "1309GRE0924", "SITE_NAME": "Green Lake", "COUNTY": "Greene", "LINK": "https://extapps.dec.ny.gov/data/IF/CSLAP/1309GRE0924/"}, "geometry": {"type": "Point", "coordinates": [-73.8817995079106, 42.2874075644227]}}, {"type": "Feature", "properties": {"OBJECTID": 5089, "LAKE_HISTORY_ID": "1309HOL0913", "SITE_NAME": "Hollister Lake", "COUNTY": "Greene", "LINK": "https://extapps.dec.ny.gov/data/IF/CSLAP/1309HOL0913/"}, "geometry": {"type": "Point", "coordinates": [-73.8845005106024, 42.3095105681485]}}, {"type": "Feature", "properties": {"OBJECTID": 5090, "LAKE_HISTORY_ID": "1309MYO0954", "SITE_NAME": "Myosotis Lake", "COUNTY": "Albany", "LINK": "https://extapps.dec.ny.gov/data/IF/CSLAP/1309MYO0954/"}, "geometry": {"type": "Point", "coordinates": [-74.150201610634, 42.5202075983794]}}, {"type": "Feature", "properties": {"OBJECTID": 5091, "LAKE_HISTORY_ID": "1309NOR6398", "SITE_NAME": "North-South Lake", "COUNTY": "Greene", "LINK": "https://extapps.dec.ny.gov/data/IF/CSLAP/1309NOR6398/"}, "geometry": {"type": "Point", "coordinates": [-74.0428025538282, 42.1981095421354]}}, {"type": "Feature", "properties": {"OBJECTID": 5092, "LAKE_HISTORY_ID": "1309POT0925A", "SITE_NAME": "Potic Reservoir", "COUNTY": "Greene", "LINK": "https://extapps.dec.ny.gov/data/IF/CSLAP/1309POT0925A/"}, "geometry": {"type": "Point", "coordinates": [-73.9192975234822, 42.3327075715276]}}, {"type": "Feature", "properties": {"OBJECTID": 5093, "LAKE_HISTORY_ID": "1309VLA0960B", "SITE_NAME": "Vlaie Pond", "COUNTY": "Schoharie", "LINK": "https://extapps.dec.ny.gov/data/IF/CSLAP/1309VLA0960B/"}, "geometry": {"type": "Point", "coordinates": [-74.304002661887, 42.5314075948089]}}, {"type": "Feature", "properties": {"OBJECTID": 5095, "LAKE_HISTORY_ID": "1310CHR0105", "SITE_NAME": "Chrysler Pond", "COUNTY": "Columbia", "LINK": "https://extapps.dec.ny.gov/data/IF/CSLAP/1310CHR0105/"}, "geometry": {"type": "Point", "coordinates": [-73.6055994061195, 42.1011095394473]}}, {"type": "Feature", "properties": {"OBJECTID": 5096, "LAKE_HISTORY_ID": "1310COP0108", "SITE_NAME": "Copake Lake", "COUNTY": "Columbia", "LINK": "https://extapps.dec.ny.gov/data/IF/CSLAP/1310COP0108/"}, "geometry": {"type": "Point", "coordinates": [-73.5954984061654, 42.1440095478059]}}, {"type": "Feature", "properties": {"OBJECTID": 5097, "LAKE_HISTORY_ID": "1310KIN0024", "SITE_NAME": "Kinderhook Lake", "COUNTY": "Columbia", "LINK": "https://extapps.dec.ny.gov/data/IF/CSLAP/1310KIN0024/"}, "geometry": {"type": "Point", "coordinates": [-73.6601044469914, 42.4526076032893]}}, {"type": "Feature", "properties": {"OBJECTID": 5098, "LAKE_HISTORY_ID": "1310LYO0035", "SITE_NAME": "Lyons Pond", "COUNTY": "Rensselaer", "LINK": "https://extapps.dec.ny.gov/data/IF/CSLAP/1310LYO0035/"}, "geometry": {"type": "Point", "coordinates": [-73.5804994266776, 42.5360076220608]}}, {"type": "Feature", "properties": {"OBJECTID": 5099, "LAKE_HISTORY_ID": "1310MOO0124A", "SITE_NAME": "Moore Pond", "COUNTY": "Columbia", "LINK": "https://extapps.dec.ny.gov/data/IF/CSLAP/1310MOO0124A/"}, "geometry": {"type": "Point", "coordinates": [-73.6517044301656, 42.2356075625532]}}, {"type": "Feature", "properties": {"OBJECTID": 5100, "LAKE_HISTORY_ID": "1310NAS0034", "SITE_NAME": "Nassau Lake", "COUNTY": "Rensselaer", "LINK": "https://extapps.dec.ny.gov/data/IF/CSLAP/1310NAS0034/"}, "geometry": {"type": "Point", "coordinates": [-73.6037994343584, 42.5381096213601]}}, {"type": "Feature", "properties": {"OBJECTID": 5103, "LAKE_HISTORY_ID": "1310SMI0042", "SITE_NAME": "Smith Pond", "COUNTY": "Columbia", "LINK": "https://extapps.dec.ny.gov/data/IF/CSLAP/1310SMI0042/"}, "geometry": {"type": "Point", "coordinates": [-73.6074994245126, 42.3648075884755]}}, {"type": "Feature", "properties": {"OBJECTID": 5105, "LAKE_HISTORY_ID": "1310SUT0052", "SITE_NAME": "Southerland Pond", "COUNTY": "Columbia", "LINK": "https://extapps.dec.ny.gov/data/IF/CSLAP/1310SUT0052/"}, "geometry": {"type": "Point", "coordinates": [-73.5686044135442, 42.4013065973047]}}, {"type": "Feature", "properties": {"OBJECTID": 5106, "LAKE_HISTORY_ID": "1310UWB6751", "SITE_NAME": "Unnamed Water", "COUNTY": "Columbia", "LINK": "https://extapps.dec.ny.gov/data/IF/CSLAP/1310UWB6751/"}, "geometry": {"type": "Point", "coordinates": [-73.618402412698, 42.1457065469626]}}, {"type": "Feature", "properties": {"OBJECTID": 5107, "LAKE_HISTORY_ID": "1311DEL0292", "SITE_NAME": "Delanson Reservoir", "COUNTY": "Schenectady", "LINK": "https://extapps.dec.ny.gov/data/IF/CSLAP/1311DEL0292/"}, "geometry": {"type": "Point", "coordinates": [-74.1811996375897, 42.764710642262]}}, {"type": "Feature", "properties": {"OBJECTID": 5108, "LAKE_HISTORY_ID": "1311DUA0276A", "SITE_NAME": "Duane Lake", "COUNTY": "Schenectady", "LINK": "https://extapps.dec.ny.gov/data/IF/CSLAP/1311DUA0276A/"}, "geometry": {"type": "Point", "coordinates": [-74.112603613393, 42.7491086425394]}}, {"type": "Feature", "properties": {"OBJECTID": 5109, "LAKE_HISTORY_ID": "1311DUA0290", "SITE_NAME": "Duanesburg Reservoir", "COUNTY": "Schenectady", "LINK": "https://extapps.dec.ny.gov/data/IF/CSLAP/1311DUA0290/"}, "geometry": {"type": "Point", "coordinates": [-74.1873036418168, 42.7970096482233]}}, {"type": "Feature", "properties": {"OBJECTID": 5110, "LAKE_HISTORY_ID": "1311MIL0289", "SITE_NAME": "Mill Pond", "COUNTY": "Schenectady", "LINK": "https://extapps.dec.ny.gov/data/IF/CSLAP/1311MIL0289/"}, "geometry": {"type": "Point", "coordinates": [-74.1330046221084, 42.7647106441116]}}, {"type": "Feature", "properties": {"OBJECTID": 5111, "LAKE_HISTORY_ID": "1311PRIVXXX1", "SITE_NAME": "Unnamed Pond Raber", "COUNTY": "Albany", "LINK": "https://extapps.dec.ny.gov/data/IF/CSLAP/1311PRIVXXX1/"}, "geometry": {"type": "Point", "coordinates": [-74.0455685843308, 42.6349946233006]}}, {"type": "Feature", "properties": {"OBJECTID": 5112, "LAKE_HISTORY_ID": "1311THO0274", "SITE_NAME": "Thompsons Lake", "COUNTY": "Albany", "LINK": "https://extapps.dec.ny.gov/data/IF/CSLAP/1311THO0274/"}, "geometry": {"type": "Point", "coordinates": [-74.0421995840961, 42.6496096260915]}}, {"type": "Feature", "properties": {"OBJECTID": 5113, "LAKE_HISTORY_ID": "1311UWB6877", "SITE_NAME": "Unnamed Water", "COUNTY": "Albany", "LINK": "https://extapps.dec.ny.gov/data/IF/CSLAP/1311UWB6877/"}, "geometry": {"type": "Point", "coordinates": [-74.0333035831816, 42.6699076308754]}}, {"type": "Feature", "properties": {"OBJECTID": 5114, "LAKE_HISTORY_ID": "1311WAT0270", "SITE_NAME": "Watervliet Reservoir", "COUNTY": "Albany", "LINK": "https://extapps.dec.ny.gov/data/IF/CSLAP/1311WAT0270/"}, "geometry": {"type": "Point", "coordinates": [-73.9684005648181, 42.7196096424604]}}, {"type": "Feature", "properties": {"OBJECTID": 5198, "LAKE_HISTORY_ID": "1403UWB0368E", "SITE_NAME": "Unnamed Water", "COUNTY": "Delaware", "LINK": "https://extapps.dec.ny.gov/data/IF/CSLAP/1403UWB0368E/"}, "geometry": {"type": "Point", "coordinates": [-74.5356997119738, 42.1741075194557]}}, {"type": "Feature", "properties": {"OBJECTID": 5209, "LAKE_HISTORY_ID": "1404STA0462", "SITE_NAME": "Stamford Reservoir", "COUNTY": "Schoharie", "LINK": "https://extapps.dec.ny.gov/data/IF/CSLAP/1404STA0462/"}, "geometry": {"type": "Point", "coordinates": [-74.6166017570077, 42.443909566613]}}]}