{"type": "FeatureCollection", "name": "nodes", "features": [{"type": "Feature", "geometry": {"type": "Point", "coordinates": [-74.145, 42.515]}, "properties": {"site_id": "PLATEAU_WELLS", "name": "Helderberg plateau private wells (Westerlo / Rensselaerville / Berne)", "node_type": "private_well_zone", "source_type": "groundwater_bedrock", "symbol_hint": "\u25b2 (drop/hex)", "watershed": "Divide: Hannacroix / Catskill Creek", "sub_watershed": "Helderberg escarpment top", "receiving_water": "Basic Creek or Ten Mile Creek depending on parcel side", "downstream_rank": 0.0, "town": "Rensselaerville / Westerlo", "county": "Albany", "elev_ft_approx": 1500, "elev_source": "USGS 3DEP at Rensselaerville Water Supply Dam 400 m away (1,500 ft)", "coord_source": "REFERENCE POINT: Rensselaerville hamlet, on the Hannacroix/Catskill divide (user choice 2026-09-29)", "pws_id": null, "pop_served": null, "treatment": "none (private)", "data_status": "none (private) \u2014 one small coop system unverified", "latest_data_year": null, "topline_summary": "Mostly private bedrock wells, no routine monitoring. CORRECTION: ECHO lists a \"Westerlo Southside Water Coop\" \u2014 a small community system does exist in the town; name/PWS ID to be confirmed with Town of Westerlo / NYS DOH.", "notes": "Generic plateau private-well zone, not a specific property. Reference point for every km_from_ref column in the workbook. NYS DOH Albany Co. contact list shows no public water system in Westerlo.", "aquifer_setting": "bedrock (outside mapped unconsolidated aquifer)", "km_to_nearest_valley_aquifer": 0.55, "dec_basin": "Catskill Creek", "dec_permit_basin": "13-09", "in_basic_creek_res_catchment": "no"}}, {"type": "Feature", "geometry": {"type": "Point", "coordinates": [-74.0078, 42.4397]}, "properties": {"site_id": "USGS_A2183", "name": "USGS well A2183 (200 ft bedrock)", "node_type": "monitoring_well", "source_type": "groundwater_bedrock", "symbol_hint": "\u25b2 hollow", "watershed": "Divide", "sub_watershed": "Helderberg escarpment", "receiving_water": null, "downstream_rank": 0.0, "town": "Westerlo area (Albany Co.)", "county": "Albany", "elev_ft_approx": 955, "elev_source": "USGS 3DEP EPQS 2026-09-29 at exact coords (was ~960)", "coord_source": "USGS site id (DDMMSS)", "pws_id": null, "pop_served": null, "treatment": null, "data_status": "thin (1 sample)", "latest_data_year": 2012.0, "topline_summary": "Sampled once, 2012-03-30; 3 field measurements. Inactive.", "notes": "https://waterdata.usgs.gov/monitoring-location/USGS-422623074002801/", "aquifer_setting": "bedrock (outside mapped unconsolidated aquifer)", "km_to_nearest_valley_aquifer": 1.3, "dec_basin": "Catskill Creek", "dec_permit_basin": "13-09", "in_basic_creek_res_catchment": "no"}}, {"type": "Feature", "geometry": {"type": "Point", "coordinates": [-74.01444, 42.47722]}, "properties": {"site_id": "BASIC_CREEK_RES", "name": "Basic Creek Reservoir", "node_type": "reservoir", "source_type": "surface_reservoir", "symbol_hint": "\u25cf (filled circle)", "watershed": "Hannacroix Creek", "sub_watershed": "Basic Creek", "receiving_water": "Alcove Reservoir", "downstream_rank": 1.0, "town": "Westerlo", "county": "Albany", "elev_ft_approx": 928, "elev_source": "USGS 3DEP EPQS 2026-09-29 at exact coords (was ~1150)", "coord_source": "DEC dam inventory (Basic Creek Dam)", "pws_id": null, "pop_served": null, "treatment": "Albany backup supply (untreated at source)", "data_status": "rich (assessment) / stale (numbers)", "latest_data_year": 2025.0, "topline_summary": "IMPAIRED: phosphorus (TMDL 2013), dissolved oxygen (303d 2022), iron. 15 HAB reports in 2025. Last published P values 2004\u201305.", "notes": "DEC segment 1309-0001, Class A, 236.8 ac. Residence time 0.1 yr. DAM: high hazard, built 1928, 21 ft, max storage 3,922 ac-ft, drainage 16.76 sq mi; last inspected 2024-04-09, rated \"Unsound \u2013 Deficiency Recognized\" (DEC dam inventory).", "aquifer_setting": "bedrock (outside mapped unconsolidated aquifer)", "km_to_nearest_valley_aquifer": 0.09, "dec_basin": "Catskill Creek", "dec_permit_basin": "13-09", "in_basic_creek_res_catchment": "yes"}}, {"type": "Feature", "geometry": {"type": "Point", "coordinates": [-73.93167, 42.4675]}, "properties": {"site_id": "ALCOVE_RES", "name": "Alcove Reservoir", "node_type": "reservoir", "source_type": "surface_reservoir", "symbol_hint": "\u25cf", "watershed": "Hannacroix Creek", "sub_watershed": "Hannacroix Creek", "receiving_water": "Hannacroix Creek \u2192 Hudson", "downstream_rank": 2.0, "town": "Coeymans", "county": "Albany", "elev_ft_approx": 609, "elev_source": "USGS 3DEP EPQS 2026-09-29 at exact coords (was ~400)", "coord_source": "DEC dam inventory (Alcove Dam)", "pws_id": null, "pop_served": null, "treatment": "Albany primary supply", "data_status": "thin", "latest_data_year": 2024.0, "topline_summary": "Trophic state not assessed; no depth profiles; frequent blooms; 2 invasive plants. 3 HAB reports 2025.", "notes": "Per Albany AWQR: 13.5 billion gal, avg depth 25 ft, max 75 ft, 17 mi shoreline; 6,500 acres of Water Board land around both reservoirs. Deep enough to stratify \u2014 opposite of Basic Creek (4 m). DAM: high hazard, 1929, 80 ft, 40,242 ac-ft, drainage 32.5 sq mi; 2024 inspection \"No deficiencies noted\".", "aquifer_setting": "bedrock (outside mapped unconsolidated aquifer)", "km_to_nearest_valley_aquifer": 0.74, "dec_basin": "Lower Hudson Main Stem", "dec_permit_basin": "13-01", "in_basic_creek_res_catchment": "no"}}, {"type": "Feature", "geometry": {"type": "Point", "coordinates": [-73.76, 42.65]}, "properties": {"site_id": "ALBANY_CITY_PWS", "name": "City of Albany water system (Alcove/Basic Creek \u2192 Feura Bush filtration)", "node_type": "public_water_system", "source_type": "surface_reservoir", "symbol_hint": "\u25c6 (diamond)", "watershed": "Hannacroix Creek", "sub_watershed": "Alcove/Basic Creek", "receiving_water": "distributed", "downstream_rank": 3.0, "town": "Albany", "county": "Albany", "elev_ft_approx": 0, "elev_source": null, "coord_source": "estimate", "pws_id": "NY0100189", "pop_served": null, "treatment": "Alcove intake \u2192 Feura Bush plant: NaMnO4 + polyaluminum chloride, settling, filtration, chlorine (NaOCl since ~2019), pH/alkalinity corrosion control", "data_status": "rich (AWQR 2019, 2020, 2021, 2023, 2025)", "latest_data_year": 2025.0, "topline_summary": "No MCL violations. TTHM LRAA 43\u201359 \u00b5g/L (2019\u201325). Lead 90th pct 13\u201317 \u00b5g/L; ACTION LEVEL exceeded 2023 (16.6; one tap at 196). PFOA/PFOS/dioxane/UCMR5 PFAS all ND. Pop. 101,866; 25,000 connections.", "notes": "Basic Creek used only to augment Alcove level; AWQRs say no source restriction any year 2019\u20132025.", "aquifer_setting": "bedrock (outside mapped unconsolidated aquifer)", "km_to_nearest_valley_aquifer": 0.37, "dec_basin": "Lower Hudson Main Stem", "dec_permit_basin": "13-01", "in_basic_creek_res_catchment": "no"}}, {"type": "Feature", "geometry": {"type": "Point", "coordinates": [-74.14583, 42.51889]}, "properties": {"site_id": "MYOSOTIS_LAKE", "name": "Myosotis Lake (Rensselaerville)", "node_type": "lake", "source_type": "surface_lake", "symbol_hint": "\u25cf", "watershed": "Catskill Creek", "sub_watershed": "Ten Mile Creek headwaters", "receiving_water": "Ten Mile Creek", "downstream_rank": 1.0, "town": "Rensselaerville", "county": "Albany", "elev_ft_approx": 1536, "elev_source": "USGS 3DEP EPQS 2026-09-29 at exact coords (was ~1400)", "coord_source": "DEC dam inventory (Myosotis Lake Dam)", "pws_id": null, "pop_served": null, "treatment": null, "data_status": "thin", "latest_data_year": 2025.0, "topline_summary": "2 HAB reports 2025 (8/7\u201310/22).", "notes": " DAM: high hazard, 1933, 22 ft, 1,975 ac-ft, drainage 6.57 sq mi; owner Huyck Preserve; 2024 \"Unsound \u2013 Fair\".", "aquifer_setting": "bedrock (outside mapped unconsolidated aquifer)", "km_to_nearest_valley_aquifer": 0.66, "dec_basin": "Catskill Creek", "dec_permit_basin": "13-09", "in_basic_creek_res_catchment": "no"}}, {"type": "Feature", "geometry": {"type": "Point", "coordinates": [-74.14389, 42.51528]}, "properties": {"site_id": "RENSSELAERVILLE_WD", "name": "Rensselaerville Water District", "node_type": "public_water_system", "source_type": "surface_stream", "symbol_hint": "\u25c6", "watershed": "Catskill Creek", "sub_watershed": "Ten Mile Creek", "receiving_water": "Ten Mile Creek \u2192 Catskill Creek", "downstream_rank": 2.0, "town": "Rensselaerville", "county": "Albany", "elev_ft_approx": 1500, "elev_source": "USGS 3DEP EPQS 2026-09-29 at exact coords (was ~1300)", "coord_source": "DEC dam inventory (Rensselaerville Water Supply Dam)", "pws_id": "NY0100202", "pop_served": null, "treatment": "Settling \u2192 NaMnO4 \u2192 slow sand \u2192 aeration (summer) \u2192 GAC \u2192 NaOCl; 50k gal clearwell", "data_status": "rich", "latest_data_year": 2025.0, "topline_summary": "No violations. TTHM range to 84.2 \u00b5g/L (MCL 80) \u2014 DOC signal. Lead 90th pct 9.3 \u00b5g/L.", "notes": "Source flagged 'elevated susceptibility'. Intake impoundment: Rensselaerville Water Supply Dam on Ten Mile Creek, 4 ft, drainage 6.6 sq mi (low hazard, not rated).", "aquifer_setting": "bedrock (outside mapped unconsolidated aquifer)", "km_to_nearest_valley_aquifer": 0.6, "dec_basin": "Catskill Creek", "dec_permit_basin": "13-09", "in_basic_creek_res_catchment": "no"}}, {"type": "Feature", "geometry": {"type": "Point", "coordinates": [-74.02, 42.41]}, "properties": {"site_id": "GREENVILLE_WD", "name": "Greenville Water District No. 1", "node_type": "public_water_system", "source_type": "groundwater_bedrock", "symbol_hint": "\u25c6 w/ \u25b2", "watershed": "Catskill Creek", "sub_watershed": "Catskill Creek mid-valley", "receiving_water": "Catskill Creek", "downstream_rank": 3.0, "town": "Greenville", "county": "Greene", "elev_ft_approx": 697, "elev_source": "USGS 3DEP EPQS 2026-09-29 at ESTIMATED coords (was ~620)", "coord_source": "estimate", "pws_id": "NY1900028", "pop_served": 1900.0, "treatment": "Chlorination, corrosion inhibitor, greensand filtration (Fe/Mn)", "data_status": "rich", "latest_data_year": 2025.0, "topline_summary": "No MCL violations (2024 AWQR filing lapse). Radium 0.82 pCi/L, barium 0.18, fluoride 0.43 \u2014 bedrock signature. Fe/Mn/nitrate/arsenic/PFAS ND.", "notes": "3 drilled wells; 260 connections.", "aquifer_setting": "bedrock (outside mapped unconsolidated aquifer)", "km_to_nearest_valley_aquifer": 0.31, "dec_basin": "Catskill Creek", "dec_permit_basin": "13-09", "in_basic_creek_res_catchment": "no"}}, {"type": "Feature", "geometry": {"type": "Point", "coordinates": [-74.0, 42.3]}, "properties": {"site_id": "CAIRO_WD", "name": "Cairo Water District", "node_type": "public_water_system", "source_type": "groundwater_GWUDI", "symbol_hint": "\u25c6 w/ \u25b2 (hatched = under surface influence)", "watershed": "Catskill Creek", "sub_watershed": "Catskill Creek lower valley", "receiving_water": "Catskill Creek", "downstream_rank": 4.0, "town": "Cairo", "county": "Greene", "elev_ft_approx": 370, "elev_source": "USGS 3DEP EPQS 2026-09-29 at ESTIMATED coords (was ~380)", "coord_source": "estimate", "pws_id": "NY1900025", "pop_served": 1400.0, "treatment": "Chlorine + NaOH", "data_status": "rich (2022) / 2024 scanned", "latest_data_year": 2024.0, "topline_summary": "No violations. PFOS 6.75 ng/L (NY MCL 10; EPA 4). Arsenic 2.7 \u00b5g/L (Well #3). m-Xylene 0.94 \u00b5g/L (2021).", "notes": "Wells classified groundwater under influence of surface water.", "aquifer_setting": "bedrock (outside mapped unconsolidated aquifer)", "km_to_nearest_valley_aquifer": 0.87, "dec_basin": "Catskill Creek", "dec_permit_basin": "13-09", "in_basic_creek_res_catchment": "no"}}, {"type": "Feature", "geometry": {"type": "Point", "coordinates": [-73.9, 42.25]}, "properties": {"site_id": "CATSKILL_CREEK", "name": "Catskill Creek (main stem)", "node_type": "stream", "source_type": "surface_stream", "symbol_hint": "\u2014 (line)", "watershed": "Catskill Creek", "sub_watershed": "Catskill Creek", "receiving_water": "Hudson River", "downstream_rank": 5.0, "town": "Cairo \u2192 Catskill", "county": "Greene", "elev_ft_approx": 100, "elev_source": "estimate", "coord_source": "estimate", "pws_id": null, "pop_served": null, "treatment": null, "data_status": "thin", "latest_data_year": 2025.0, "topline_summary": "2 HAB reports 9/6\u20139/24/2025 (unusual for a stream \u2014 low-flow signal).", "notes": null, "aquifer_setting": "bedrock (outside mapped unconsolidated aquifer)", "km_to_nearest_valley_aquifer": 0.31, "dec_basin": "Catskill Creek", "dec_permit_basin": "13-09", "in_basic_creek_res_catchment": "no"}}, {"type": "Feature", "geometry": {"type": "Point", "coordinates": [-73.91583, 42.33028]}, "properties": {"site_id": "POTIC_RES", "name": "Potic Reservoir (Village of Catskill supply)", "node_type": "reservoir", "source_type": "surface_reservoir", "symbol_hint": "\u25cf", "watershed": "Hannacroix/Coxsackie", "sub_watershed": "Potic Creek", "receiving_water": "Hudson", "downstream_rank": 1.0, "town": "Coxsackie", "county": "Greene", "elev_ft_approx": 424, "elev_source": "USGS 3DEP EPQS 2026-09-29 at exact coords (was ~250)", "coord_source": "DEC dam inventory (Potuck Reservoir Dam)", "pws_id": null, "pop_served": null, "treatment": null, "data_status": "via AWQR only", "latest_data_year": 2022.0, "topline_summary": "High microbial susceptibility (pasture runoff); phosphorus-sensitive; aerator + settling basin being added to cut THM precursors.", "notes": "Serves a Catskill-Creek-mouth town from a different drainage. DAM: high hazard, 1930, 37 ft, 1,550 ac-ft, drainage 19.6 sq mi; owner Village of Catskill; 2024 \"Deficiently maintained\".", "aquifer_setting": "bedrock (outside mapped unconsolidated aquifer)", "km_to_nearest_valley_aquifer": 0.02, "dec_basin": "Catskill Creek", "dec_permit_basin": "13-09", "in_basic_creek_res_catchment": "no"}}, {"type": "Feature", "geometry": {"type": "Point", "coordinates": [-73.87, 42.22]}, "properties": {"site_id": "CATSKILL_VILLAGE_PWS", "name": "Village of Catskill water system", "node_type": "public_water_system", "source_type": "surface_reservoir", "symbol_hint": "\u25c6", "watershed": "Catskill Creek (mouth)", "sub_watershed": "Potic Reservoir source", "receiving_water": "distributed", "downstream_rank": 6.0, "town": "Catskill", "county": "Greene", "elev_ft_approx": 40, "elev_source": "estimate", "coord_source": "estimate", "pws_id": "NY1900026", "pop_served": 8500.0, "treatment": "Trident package filtration; NaMnO4, NaOH, coagulant, Cl2, Zn-orthophosphate", "data_status": "rich (2022); 2024 report exists", "latest_data_year": 2024.0, "topline_summary": "TTHM MCL VIOLATION 2022 (LRAA 85\u201394 vs 80). Lead 90th pct 9.6 \u00b5g/L, some homes >15. PFOS 1.7 / PFOA 2.0 ng/L.", "notes": "~2,200 connections.", "aquifer_setting": "bedrock (outside mapped unconsolidated aquifer)", "km_to_nearest_valley_aquifer": 1.77, "dec_basin": "Catskill Creek", "dec_permit_basin": "13-09", "in_basic_creek_res_catchment": "no"}}, {"type": "Feature", "geometry": {"type": "Point", "coordinates": [-74.05, 42.63]}, "properties": {"site_id": "THOMPSONS_LAKE", "name": "Thompsons Lake", "node_type": "lake", "source_type": "surface_lake", "symbol_hint": "\u25cf", "watershed": "Hannacroix? (verify: drains to Onesquethaw/Coeymans)", "sub_watershed": null, "receiving_water": null, "downstream_rank": 0.0, "town": "Berne", "county": "Albany", "elev_ft_approx": 1200, "elev_source": "estimate", "coord_source": "estimate", "pws_id": null, "pop_served": null, "treatment": null, "data_status": "thin", "latest_data_year": 2025.0, "topline_summary": "1 HAB report 6/16/2025.", "notes": "Candidate CSLAP site.", "aquifer_setting": "bedrock (outside mapped unconsolidated aquifer)", "km_to_nearest_valley_aquifer": 4.14, "dec_basin": "Schoharie Creek *", "dec_permit_basin": "12-02", "in_basic_creek_res_catchment": "no"}}, {"type": "Feature", "geometry": {"type": "Point", "coordinates": [-73.95, 42.5]}, "properties": {"site_id": "LAWSON_LAKE", "name": "Lawson Lake", "node_type": "lake", "source_type": "surface_lake", "symbol_hint": "\u25cf", "watershed": "Hannacroix Creek", "sub_watershed": null, "receiving_water": null, "downstream_rank": 1.0, "town": "Coeymans", "county": "Albany", "elev_ft_approx": 700, "elev_source": "estimate", "coord_source": "estimate", "pws_id": null, "pop_served": null, "treatment": null, "data_status": "thin", "latest_data_year": 2025.0, "topline_summary": "3 HAB reports 7/23\u20138/8/2025.", "notes": "Albany Co. park lake.", "aquifer_setting": "bedrock (outside mapped unconsolidated aquifer)", "km_to_nearest_valley_aquifer": 2.92, "dec_basin": "Lower Hudson Main Stem", "dec_permit_basin": "13-01", "in_basic_creek_res_catchment": "no"}}, {"type": "Feature", "geometry": {"type": "Point", "coordinates": [-74.14, 42.62]}, "properties": {"site_id": "BKW_SCHOOL_PWS", "name": "Berne-Knox-Westerlo CSD", "node_type": "public_water_system", "source_type": "groundwater_bedrock", "symbol_hint": "\u25c6 small", "watershed": "Divide", "sub_watershed": null, "receiving_water": null, "downstream_rank": 0.0, "town": "Berne", "county": "Albany", "elev_ft_approx": 1500, "elev_source": "estimate", "coord_source": "estimate", "pws_id": "NY0115885", "pop_served": null, "treatment": null, "data_status": "not pulled", "latest_data_year": null, "topline_summary": "Only non-residential public system on the escarpment top \u2014 its AWQR would be the nearest public bedrock-well data to Westerlo.", "notes": "Ask district for AWQR.", "aquifer_setting": "bedrock (outside mapped unconsolidated aquifer)", "km_to_nearest_valley_aquifer": 1.3, "dec_basin": "Schoharie Creek *", "dec_permit_basin": "12-02", "in_basic_creek_res_catchment": "no"}}, {"type": "Feature", "geometry": {"type": "Point", "coordinates": [-74.08, 42.45]}, "properties": {"site_id": "BASIC_CREEK_STREAM", "name": "Basic Creek (stream, 6 DEC sites)", "node_type": "stream", "source_type": "surface_stream", "symbol_hint": "\u2014 (line)", "watershed": "Hannacroix Creek", "sub_watershed": "Basic Creek", "receiving_water": "Basic Creek Reservoir", "downstream_rank": 0.5, "town": "Westerlo", "county": "Albany", "elev_ft_approx": 1300, "elev_source": "estimate", "coord_source": "estimate", "pws_id": null, "pop_served": null, "treatment": null, "data_status": "rich (DEC index: chemistry 2008\u20132022, macroinvertebrates 1995\u20132022)", "latest_data_year": 2022.0, "topline_summary": "Phosphorus, nitrate, iron, chloride 2008\u20132022 (11 events); nutrient biotic index 1995\u20132022 at 6 sites.", "notes": "DEC DOW portal; values not yet pulled", "aquifer_setting": "bedrock (outside mapped unconsolidated aquifer)", "km_to_nearest_valley_aquifer": 0.09, "dec_basin": "Catskill Creek", "dec_permit_basin": "13-09", "in_basic_creek_res_catchment": "no"}}, {"type": "Feature", "geometry": {"type": "Point", "coordinates": [-74.075, 42.62083]}, "properties": {"site_id": "WARNERS_LAKE", "name": "Warners Lake", "node_type": "lake", "source_type": "surface_lake", "symbol_hint": "\u25cf", "watershed": "Fox Creek \u2192 Schoharie Creek (confirmed by dam inventory stream field)", "sub_watershed": null, "receiving_water": null, "downstream_rank": 0.0, "town": "Berne", "county": "Albany", "elev_ft_approx": 1199, "elev_source": "USGS 3DEP EPQS 2026-09-29 at exact coords (was ~1300)", "coord_source": "DEC dam inventory (Warner Lake Dam)", "pws_id": null, "pop_served": null, "treatment": null, "data_status": "moderate (DEC index 2001\u20132016)", "latest_data_year": 2016.0, "topline_summary": "Full DO/temp profiles + HAB toxins 2012\u20132016; phosphorus 2001\u20132016.", "notes": "DEC DOW portal DAM: intermediate hazard, 1964, 270 ac-ft, drainage 1.88 sq mi (stream: TR-Fox Creek \u2192 Schoharie \u2014 resolves the \"verify\"); 2024 \"Unsound \u2013 Fair\".", "aquifer_setting": "bedrock (outside mapped unconsolidated aquifer)", "km_to_nearest_valley_aquifer": 5.05, "dec_basin": "Schoharie Creek *", "dec_permit_basin": "12-02", "in_basic_creek_res_catchment": "no"}}, {"type": "Feature", "geometry": {"type": "Point", "coordinates": [-74.08583, 42.55056]}, "properties": {"site_id": "ONDERDONK_LAKE", "name": "Onderdonk Lake", "node_type": "lake", "source_type": "surface_lake", "symbol_hint": "\u25cf", "watershed": "Hannacroix? (verify)", "sub_watershed": null, "receiving_water": null, "downstream_rank": 0.0, "town": "Westerlo/Berne", "county": "Albany", "elev_ft_approx": 1392, "elev_source": "USGS 3DEP EPQS 2026-09-29 at exact coords (was ~1300)", "coord_source": "DEC dam inventory (Onderdonk Lake Dam)", "pws_id": null, "pop_served": null, "treatment": null, "data_status": "thin-moderate (DEC index 2001\u20132025)", "latest_data_year": 2025.0, "topline_summary": "Phosphorus, chlorophyll, Secchi 2001\u20132025 (8 events); sampled 2025.", "notes": "DEC DOW portal DAM: intermediate hazard, 1928, 280 ac-ft; multiple owners incl. Town of Westerlo; 2023 \"Unsound \u2013 More Analysis needed\".", "aquifer_setting": "bedrock (outside mapped unconsolidated aquifer)", "km_to_nearest_valley_aquifer": 1.72, "dec_basin": "Schoharie Creek *", "dec_permit_basin": "12-02", "in_basic_creek_res_catchment": "no"}}, {"type": "Feature", "geometry": {"type": "Point", "coordinates": [-73.80472, 42.28056]}, "properties": {"site_id": "SLEEPY_HOLLOW_LAKE", "name": "Sleepy Hollow Lake", "node_type": "lake", "source_type": "surface_lake", "symbol_hint": "\u25cf", "watershed": "Hudson direct (Athens/Coxsackie)", "sub_watershed": null, "receiving_water": null, "downstream_rank": 1.0, "town": "Athens/Coxsackie", "county": "Greene", "elev_ft_approx": 150, "elev_source": "estimate", "coord_source": "DEC dam inventory (Sleepy Hollow Dam)", "pws_id": null, "pop_served": null, "treatment": null, "data_status": "RICH (DEC index: 4,527 samples 2003\u20132025, CSLAP)", "latest_data_year": 2025.0, "topline_summary": "Best-monitored lake in the region: phosphorus 122 events, chlorophyll 129, Secchi 135, HAB toxins 2012\u20132022. The regional control series.", "notes": "DEC DOW portal; 2 HAB reports 2025 DAM: high hazard, 1972, 83 ft, 13,500 ac-ft, drainage 13.3 sq mi (Murderers Creek); 2024 \"No deficiencies noted\".", "aquifer_setting": "bedrock (outside mapped unconsolidated aquifer)", "km_to_nearest_valley_aquifer": 0.56, "dec_basin": "Lower Hudson Main Stem", "dec_permit_basin": "13-01", "in_basic_creek_res_catchment": "no"}}, {"type": "Feature", "geometry": {"type": "Point", "coordinates": [-74.0209, 42.424]}, "properties": {"site_id": "GREENVILLE_WWTP", "name": "Greenville (T) WWTP \u2014 SPDES NY0094854", "node_type": "point_source", "source_type": "sewage_effluent", "symbol_hint": "\u2715 (cross) or \u25bc outfall", "watershed": "Hannacroix Creek", "sub_watershed": "Basic Creek BELOW the reservoir (StreamStats catchment check 2026-09-29: outside)", "receiving_water": "unnamed tributary \u2192 Basic Creek \u2192 Alcove Reservoir (Albany primary supply)", "downstream_rank": 1.5, "town": "Greenville", "county": "Greene", "elev_ft_approx": 1050, "elev_source": "estimate", "coord_source": "ECHO facility coords", "pws_id": null, "pop_served": null, "treatment": "secondary, 0.02 MGD design", "data_status": "rich (ECHO DMRs)", "latest_data_year": 2026.0, "topline_summary": "7 effluent exceedances (ammonia, BOD5, TSS removal); no phosphorus limit; downstream of Basic Creek Reservoir, upstream of Alcove; TMDL WLA=0 stands.", "notes": "Permit effective 2022-04-12 to 2027-03-31. Inspected 2026-05-21. Node added from TMDL cross-check.", "aquifer_setting": "bedrock (outside mapped unconsolidated aquifer)", "km_to_nearest_valley_aquifer": 0.36, "dec_basin": "Catskill Creek", "dec_permit_basin": "13-09", "in_basic_creek_res_catchment": "no"}}, {"type": "Feature", "geometry": {"type": "Point", "coordinates": [-74.0389, 42.4167]}, "properties": {"site_id": "CAMP_MALKA_WWTP", "name": "Camp Malka wastewater plant \u2014 SPDES NY0269093", "node_type": "point_source", "source_type": "sewage_effluent", "symbol_hint": "\u2715 small (seasonal)", "watershed": "Hannacroix Creek", "sub_watershed": "Basic Creek BELOW the reservoir (StreamStats catchment check 2026-09-29: outside)", "receiving_water": "unnamed tributary \u2192 Basic Creek \u2192 Alcove Reservoir (Albany primary supply)", "downstream_rank": 1.5, "town": "Greenville", "county": "Greene", "elev_ft_approx": 1150, "elev_source": "estimate", "coord_source": "ECHO facility coords", "pws_id": null, "pop_served": null, "treatment": "package plant, 0.027 MGD design, seasonal", "data_status": "rich (ECHO DMRs)", "latest_data_year": 2025.0, "topline_summary": "22 effluent exceedances, 8 quarters non-compliant (BOD5, fecal coliform, DO, settleable solids); no phosphorus limit; 2.7 km from parcel.", "notes": "Permit effective 2024-11-19 to 2029-10-31 (post-dates the TMDL). 150 Ingalside Rd. Inspected 2025-08-14.", "aquifer_setting": "valley-fill aquifer: 10-100", "km_to_nearest_valley_aquifer": 0.0, "dec_basin": "Catskill Creek", "dec_permit_basin": "13-09", "in_basic_creek_res_catchment": "no"}}]}