{"type": "FeatureCollection", "features": [{"type": "Feature", "geometry": {"type": "Point", "coordinates": [-74.327279, 42.607969]}, "properties": {"verify": 2, "verify_meaning": "unable to identify", "host_unit": "Dhm", "area_m2": 11.7, "glyph": "\ud83d\udd73", "feature": "possible covered karst (Hamilton over Onondaga)"}}, {"type": "Feature", "geometry": {"type": "Point", "coordinates": [-74.338728, 42.588271]}, "properties": {"verify": 1, "verify_meaning": "positively identified", "host_unit": "Dhm", "area_m2": 30.1, "glyph": "\ud83d\udd73", "feature": "possible covered karst (Hamilton over Onondaga)"}}, {"type": "Feature", "geometry": {"type": "Point", "coordinates": [-74.36054, 42.587714]}, "properties": {"verify": 1, "verify_meaning": "positively identified", "host_unit": "Dhm", "area_m2": 10.2, "glyph": "\ud83d\udd73", "feature": "possible covered karst (Hamilton over Onondaga)"}}, {"type": "Feature", "geometry": {"type": "Point", "coordinates": [-74.56504, 42.746163]}, "properties": {"verify": 1, "verify_meaning": "positively identified", "host_unit": "Dhm", "area_m2": 44.4, "glyph": "\ud83d\udd73", "feature": "possible covered karst (Hamilton over Onondaga)"}}, {"type": "Feature", "geometry": {"type": "Point", "coordinates": [-74.512813, 42.730228]}, "properties": {"verify": 1, "verify_meaning": "positively identified", "host_unit": "Dhm", "area_m2": 11.3, "glyph": "\ud83d\udd73", "feature": "possible covered karst (Hamilton over Onondaga)"}}, {"type": "Feature", "geometry": {"type": "Point", "coordinates": [-74.530208, 42.720711]}, "properties": {"verify": 1, "verify_meaning": "positively identified", "host_unit": "Dhm", "area_m2": 49.8, "glyph": "\ud83d\udd73", "feature": "possible covered karst (Hamilton over Onondaga)"}}]}